$GPGGA,080000.00,5006.3394,N,00839.8497,E,1,09,0.9,150.0,M,48.0,M,,*62
$GPRMC,080000.00,A,5006.3394,N,00839.8497,E,0.0,,010126,,,A*72
$GPGGA,080001.00,5006.3394,N,00839.8497,E,1,09,0.9,150.0,M,48.0,M,,*63
$GPRMC,080001.00,A,5006.3394,N,00839.8497,E,0.0,,010126,,,A*73
$GPGGA,080002.00,5006.3394,N,00839.8497,E,1,09,0.9,150.0,M,48.0,M,,*60
$GPRMC,080002.00,A,5006.3394,N,00839.8497,E,0.0,,010126,,,A*70
$GPGGA,080003.00,5006.3394,N,00839.8497,E,1,09,0.9,150.0,M,48.0,M,,*61
$GPRMC,080003.00,A,5006.3394,N,00839.8497,E,0.0,,010126,,,A*71
$GPGGA,080004.00,5006.3394,N,00839.8497,E,1,09,0.9,150.0,M,48.0,M,,*66
$GPRMC,080004.00,A,5006.3394,N,00839.8497,E,0.0,,010126,,,A*76
$GPGGA,080005.00,5006.3394,N,00839.8497,E,1,09,0.9,150.0,M,48.0,M,,*67
$GPRMC,080005.00,A,5006.3394,N,00839.8497,E,0.0,,010126,,,A*77
$GPGGA,080006.00,5006.3394,N,00839.8497,E,1,09,0.9,150.0,M,48.0,M,,*64
$GPRMC,080006.00,A,5006.3394,N,00839.8497,E,0.0,,010126,,,A*74
$GPGGA,080007.00,5006.3394,N,00839.8497,E,1,09,0.9,150.0,M,48.0,M,,*65
$GPRMC,080007.00,A,5006.3394,N,00839.8497,E,0.0,,010126,,,A*75
$GPGGA,080008.00,5006.3394,N,00839.8497,E,1,09,0.9,150.0,M,48.0,M,,*6A
$GPRMC,080008.00,A,5006.3394,N,00839.8497,E,0.0,,010126,,,A*7A
$GPGGA,080009.00,5006.3394,N,00839.8497,E,1,09,0.9,150.0,M,48.0,M,,*6B
$GPRMC,080009.00,A,5006.3394,N,00839.8497,E,0.0,,010126,,,A*7B
$GPGGA,080010.00,5006.3394,N,00839.8497,E,1,09,0.9,150.0,M,48.0,M,,*63
$GPRMC,080010.00,A,5006.3394,N,00839.8497,E,26.9,58.6,010126,,,A*5B
$GPGGA,080011.00,5006.3433,N,00839.8596,E,1,09,0.9,150.0,M,48.0,M,,*68
$GPRMC,080011.00,A,5006.3433,N,00839.8596,E,26.9,58.6,010126,,,A*50
$GPGGA,080012.00,5006.3471,N,00839.8695,E,1,09,0.9,150.0,M,48.0,M,,*6D
$GPRMC,080012.00,A,5006.3471,N,00839.8695,E,26.9,58.6,010126,,,A*55
$GPGGA,080013.00,5006.3510,N,00839.8794,E,1,09,0.9,150.0,M,48.0,M,,*6A
$GPRMC,080013.00,A,5006.3510,N,00839.8794,E,26.9,58.7,010126,,,A*53
$GPGGA,080014.00,5006.3516,N,00839.8902,E,1,09,0.9,150.0,M,48.0,M,,*6A
$GPRMC,080014.00,A,5006.3516,N,00839.8902,E,26.1,116.4,010126,,,A*63
$GPGGA,080015.00,5006.3461,N,00839.8965,E,1,09,0.9,150.0,M,48.0,M,,*6B
$GPRMC,080015.00,A,5006.3461,N,00839.8965,E,26.1,169.0,010126,,,A*6E
$GPGGA,080016.00,5006.3390,N,00839.8953,E,1,09,0.9,150.0,M,48.0,M,,*64
$GPRMC,080016.00,A,5006.3390,N,00839.8953,E,26.1,192.4,010126,,,A*61
$GPGGA,080017.00,5006.3320,N,00839.8929,E,1,09,0.9,150.0,M,48.0,M,,*63
$GPRMC,080017.00,A,5006.3320,N,00839.8929,E,26.1,193.9,010126,,,A*6A
$GPGGA,080018.00,5006.3249,N,00839.8902,E,1,09,0.9,150.0,M,48.0,M,,*6B
$GPRMC,080018.00,A,5006.3249,N,00839.8902,E,26.1,193.9,010126,,,A*62
$GPGGA,080019.00,5006.3179,N,00839.8875,E,1,09,0.9,150.0,M,48.0,M,,*6B
$GPRMC,080019.00,A,5006.3179,N,00839.8875,E,26.1,193.9,010126,,,A*62
$GPGGA,080020.00,5006.3109,N,00839.8848,E,1,09,0.9,150.0,M,48.0,M,,*68
$GPRMC,080020.00,A,5006.3109,N,00839.8848,E,26.1,193.9,010126,,,A*61
$GPGGA,080021.00,5006.3038,N,00839.8828,E,1,09,0.9,150.0,M,48.0,M,,*6C
$GPRMC,080021.00,A,5006.3038,N,00839.8828,E,26.1,189.5,010126,,,A*62
$GPGGA,080022.00,5006.2966,N,00839.8809,E,1,09,0.9,150.0,M,48.0,M,,*6F
$GPRMC,080022.00,A,5006.2966,N,00839.8809,E,26.1,189.5,010126,,,A*61
$GPGGA,080023.00,5006.2895,N,00839.8790,E,1,09,0.9,150.0,M,48.0,M,,*6C
$GPRMC,080023.00,A,5006.2895,N,00839.8790,E,26.1,187.3,010126,,,A*6A
$GPGGA,080024.00,5006.2823,N,00839.8776,E,1,09,0.9,150.0,M,48.0,M,,*6E
$GPRMC,080024.00,A,5006.2823,N,00839.8776,E,26.1,187.3,010126,,,A*68
$GPGGA,080025.00,5006.2751,N,00839.8762,E,1,09,0.9,150.0,M,48.0,M,,*60
$GPRMC,080025.00,A,5006.2751,N,00839.8762,E,26.1,187.3,010126,,,A*66
$GPGGA,080026.00,5006.2679,N,00839.8754,E,1,09,0.9,150.0,M,48.0,M,,*6D
$GPRMC,080026.00,A,5006.2679,N,00839.8754,E,26.1,182.5,010126,,,A*68
$GPGGA,080027.00,5006.2607,N,00839.8749,E,1,09,0.9,150.0,M,48.0,M,,*69
$GPRMC,080027.00,A,5006.2607,N,00839.8749,E,26.1,182.5,010126,,,A*6C
$GPGGA,080028.00,5006.2535,N,00839.8750,E,1,09,0.9,150.0,M,48.0,M,,*6C
$GPRMC,080028.00,A,5006.2535,N,00839.8750,E,26.1,177.8,010126,,,A*6E
$GPGGA,080029.00,5006.2462,N,00839.8755,E,1,09,0.9,150.0,M,48.0,M,,*6B
$GPRMC,080029.00,A,5006.2462,N,00839.8755,E,26.1,177.8,010126,,,A*69
$GPGGA,080030.00,5006.2390,N,00839.8761,E,1,09,0.9,150.0,M,48.0,M,,*6E
$GPRMC,080030.00,A,5006.2390,N,00839.8761,E,26.1,176.4,010126,,,A*61
$GPGGA,080031.00,5006.2318,N,00839.8755,E,1,09,0.9,150.0,M,48.0,M,,*68
$GPRMC,080031.00,A,5006.2318,N,00839.8755,E,26.1,184.3,010126,,,A*6D
$GPGGA,080032.00,5006.2246,N,00839.8747,E,1,09,0.9,150.0,M,48.0,M,,*62
$GPRMC,080032.00,A,5006.2246,N,00839.8747,E,26.1,184.3,010126,,,A*67
$GPGGA,080033.00,5006.2174,N,00839.8741,E,1,09,0.9,150.0,M,48.0,M,,*67
$GPRMC,080033.00,A,5006.2174,N,00839.8741,E,26.1,182.3,010126,,,A*64
$GPGGA,080034.00,5006.2101,N,00839.8737,E,1,09,0.9,150.0,M,48.0,M,,*63
$GPRMC,080034.00,A,5006.2101,N,00839.8737,E,26.1,182.3,010126,,,A*60
$GPGGA,080035.00,5006.2029,N,00839.8743,E,1,09,0.9,150.0,M,48.0,M,,*6A
$GPRMC,080035.00,A,5006.2029,N,00839.8743,E,26.1,174.6,010126,,,A*65
$GPGGA,080036.00,5006.1958,N,00839.8760,E,1,09,0.9,150.0,M,48.0,M,,*64
$GPRMC,080036.00,A,5006.1958,N,00839.8760,E,26.1,165.7,010126,,,A*6A
$GPGGA,080037.00,5006.1888,N,00839.8789,E,1,09,0.9,150.0,M,48.0,M,,*6E
$GPRMC,080037.00,A,5006.1888,N,00839.8789,E,26.1,164.2,010126,,,A*64
$GPGGA,080038.00,5006.1819,N,00839.8820,E,1,09,0.9,150.0,M,48.0,M,,*65
$GPRMC,080038.00,A,5006.1819,N,00839.8820,E,26.1,164.2,010126,,,A*6F
$GPGGA,080039.00,5006.1750,N,00839.8855,E,1,09,0.9,150.0,M,48.0,M,,*64
$GPRMC,080039.00,A,5006.1750,N,00839.8855,E,26.1,159.6,010126,,,A*64
$GPGGA,080040.00,5006.1681,N,00839.8891,E,1,09,0.9,150.0,M,48.0,M,,*6F
$GPRMC,080040.00,A,5006.1681,N,00839.8891,E,26.1,161.6,010126,,,A*64
$GPGGA,080041.00,5006.1613,N,00839.8927,E,1,09,0.9,150.0,M,48.0,M,,*69
$GPRMC,080041.00,A,5006.1613,N,00839.8927,E,26.1,161.6,010126,,,A*62
$GPGGA,080042.00,5006.1544,N,00839.8964,E,1,09,0.9,150.0,M,48.0,M,,*6C
$GPRMC,080042.00,A,5006.1544,N,00839.8964,E,26.1,160.6,010126,,,A*66
$GPGGA,080043.00,5006.1476,N,00839.9000,E,1,09,0.9,150.0,M,48.0,M,,*67
$GPRMC,080043.00,A,5006.1476,N,00839.9000,E,26.1,161.9,010126,,,A*63
$GPGGA,080044.00,5006.1411,N,00839.9050,E,1,09,0.9,150.0,M,48.0,M,,*64
$GPRMC,080044.00,A,5006.1411,N,00839.9050,E,26.1,146.1,010126,,,A*6D
$GPGGA,080045.00,5006.1352,N,00839.9115,E,1,09,0.9,150.0,M,48.0,M,,*65
$GPRMC,080045.00,A,5006.1352,N,00839.9115,E,26.1,143.0,010126,,,A*68
$GPGGA,080046.00,5006.1294,N,00839.9183,E,1,09,0.9,150.0,M,48.0,M,,*62
$GPRMC,080046.00,A,5006.1294,N,00839.9183,E,26.1,143.0,010126,,,A*6F
$GPGGA,080047.00,5006.1237,N,00839.9251,E,1,09,0.9,150.0,M,48.0,M,,*66
$GPRMC,080047.00,A,5006.1237,N,00839.9251,E,26.1,143.0,010126,,,A*6B
$GPGGA,080048.00,5006.1179,N,00839.9319,E,1,09,0.9,150.0,M,48.0,M,,*6D
$GPRMC,080048.00,A,5006.1179,N,00839.9319,E,26.1,143.0,010126,,,A*60
$GPGGA,080049.00,5006.1121,N,00839.9387,E,1,09,0.9,150.0,M,48.0,M,,*66
$GPRMC,080049.00,A,5006.1121,N,00839.9387,E,26.1,143.0,010126,,,A*6B
$GPGGA,080050.00,5006.1063,N,00839.9454,E,1,09,0.9,150.0,M,48.0,M,,*60
$GPRMC,080050.00,A,5006.1063,N,00839.9454,E,26.1,143.0,010126,,,A*6D
$GPGGA,080051.00,5006.1005,N,00839.9522,E,1,09,0.9,150.0,M,48.0,M,,*61
$GPRMC,080051.00,A,5006.1005,N,00839.9522,E,26.1,143.0,010126,,,A*6C
$GPGGA,080052.00,5006.0948,N,00839.9590,E,1,09,0.9,150.0,M,48.0,M,,*6A
$GPRMC,080052.00,A,5006.0948,N,00839.9590,E,26.1,143.0,010126,,,A*67
$GPGGA,080053.00,5006.0890,N,00839.9658,E,1,09,0.9,150.0,M,48.0,M,,*68
$GPRMC,080053.00,A,5006.0890,N,00839.9658,E,26.1,143.0,010126,,,A*65
$GPGGA,080054.00,5006.0832,N,00839.9726,E,1,09,0.9,150.0,M,48.0,M,,*6F
$GPRMC,080054.00,A,5006.0832,N,00839.9726,E,26.1,143.0,010126,,,A*62
$GPGGA,080055.00,5006.0774,N,00839.9793,E,1,09,0.9,150.0,M,48.0,M,,*6D
$GPRMC,080055.00,A,5006.0774,N,00839.9793,E,26.1,143.0,010126,,,A*60
$GPGGA,080056.00,5006.0716,N,00839.9861,E,1,09,0.9,150.0,M,48.0,M,,*68
$GPRMC,080056.00,A,5006.0716,N,00839.9861,E,26.1,143.0,010126,,,A*65
$GPGGA,080057.00,5006.0658,N,00839.9929,E,1,09,0.9,150.0,M,48.0,M,,*6F
$GPRMC,080057.00,A,5006.0658,N,00839.9929,E,26.1,143.0,010126,,,A*62
$GPGGA,080058.00,5006.0601,N,00839.9997,E,1,09,0.9,150.0,M,48.0,M,,*69
$GPRMC,080058.00,A,5006.0601,N,00839.9997,E,26.1,143.0,010126,,,A*64
$GPGGA,080059.00,5006.0543,N,00840.0065,E,1,09,0.9,150.0,M,48.0,M,,*6E
$GPRMC,080059.00,A,5006.0543,N,00840.0065,E,26.1,143.0,010126,,,A*63
$GPGGA,080100.00,5006.0485,N,00840.0133,E,1,09,0.9,150.0,M,48.0,M,,*6A
$GPRMC,080100.00,A,5006.0485,N,00840.0133,E,26.1,143.0,010126,,,A*67
$GPGGA,080101.00,5006.0427,N,00840.0200,E,1,09,0.9,150.0,M,48.0,M,,*60
$GPRMC,080101.00,A,5006.0427,N,00840.0200,E,26.1,143.0,010126,,,A*6D
$GPGGA,080102.00,5006.0369,N,00840.0268,E,1,09,0.9,150.0,M,48.0,M,,*60
$GPRMC,080102.00,A,5006.0369,N,00840.0268,E,26.1,143.0,010126,,,A*6D
$GPGGA,080103.00,5006.0312,N,00840.0336,E,1,09,0.9,150.0,M,48.0,M,,*67
$GPRMC,080103.00,A,5006.0312,N,00840.0336,E,26.1,143.0,010126,,,A*6A
$GPGGA,080104.00,5006.0254,N,00840.0404,E,1,09,0.9,150.0,M,48.0,M,,*65
$GPRMC,080104.00,A,5006.0254,N,00840.0404,E,26.1,141.3,010126,,,A*69
$GPGGA,080105.00,5006.0198,N,00840.0475,E,1,09,0.9,150.0,M,48.0,M,,*61
$GPRMC,080105.00,A,5006.0198,N,00840.0475,E,26.1,141.3,010126,,,A*6D
$GPGGA,080106.00,5006.0141,N,00840.0545,E,1,09,0.9,150.0,M,48.0,M,,*64
$GPRMC,080106.00,A,5006.0141,N,00840.0545,E,26.1,141.3,010126,,,A*68
$GPGGA,080107.00,5006.0085,N,00840.0616,E,1,09,0.9,150.0,M,48.0,M,,*69
$GPRMC,080107.00,A,5006.0085,N,00840.0616,E,26.1,141.3,010126,,,A*65
$GPGGA,080108.00,5006.0025,N,00840.0679,E,1,09,0.9,150.0,M,48.0,M,,*65
$GPRMC,080108.00,A,5006.0025,N,00840.0679,E,26.1,152.0,010126,,,A*68
$GPGGA,080109.00,5005.9959,N,00840.0727,E,1,09,0.9,150.0,M,48.0,M,,*66
$GPRMC,080109.00,A,5005.9959,N,00840.0727,E,26.1,157.3,010126,,,A*6D
$GPGGA,080110.00,5005.9893,N,00840.0771,E,1,09,0.9,150.0,M,48.0,M,,*6A
$GPRMC,080110.00,A,5005.9893,N,00840.0771,E,26.1,155.8,010126,,,A*68
$GPGGA,080111.00,5005.9828,N,00840.0820,E,1,09,0.9,150.0,M,48.0,M,,*60
$GPRMC,080111.00,A,5005.9828,N,00840.0820,E,26.1,152.7,010126,,,A*6A
$GPGGA,080112.00,5005.9767,N,00840.0882,E,1,09,0.9,150.0,M,48.0,M,,*6F
$GPRMC,080112.00,A,5005.9767,N,00840.0882,E,26.1,143.1,010126,,,A*63
$GPGGA,080113.00,5005.9710,N,00840.0950,E,1,09,0.9,150.0,M,48.0,M,,*60
$GPRMC,080113.00,A,5005.9710,N,00840.0950,E,26.1,143.1,010126,,,A*6C
$GPGGA,080114.00,5005.9652,N,00840.1018,E,1,09,0.9,150.0,M,48.0,M,,*64
$GPRMC,080114.00,A,5005.9652,N,00840.1018,E,26.1,143.1,010126,,,A*68
$GPGGA,080115.00,5005.9594,N,00840.1086,E,1,09,0.9,150.0,M,48.0,M,,*6B
$GPRMC,080115.00,A,5005.9594,N,00840.1086,E,26.1,142.7,010126,,,A*60
$GPGGA,080116.00,5005.9536,N,00840.1153,E,1,09,0.9,150.0,M,48.0,M,,*69
$GPRMC,080116.00,A,5005.9536,N,00840.1153,E,26.1,143.2,010126,,,A*66
$GPGGA,080117.00,5005.9478,N,00840.1220,E,1,09,0.9,150.0,M,48.0,M,,*64
$GPRMC,080117.00,A,5005.9478,N,00840.1220,E,26.1,143.5,010126,,,A*6C
$GPGGA,080118.00,5005.9420,N,00840.1288,E,1,09,0.9,150.0,M,48.0,M,,*64
$GPRMC,080118.00,A,5005.9420,N,00840.1288,E,26.1,143.2,010126,,,A*6B
$GPGGA,080119.00,5005.9362,N,00840.1356,E,1,09,0.9,150.0,M,48.0,M,,*66
$GPRMC,080119.00,A,5005.9362,N,00840.1356,E,26.1,143.2,010126,,,A*69
$GPGGA,080120.00,5005.9305,N,00840.1424,E,1,09,0.9,150.0,M,48.0,M,,*6F
$GPRMC,080120.00,A,5005.9305,N,00840.1424,E,26.1,141.0,010126,,,A*60
$GPGGA,080121.00,5005.9249,N,00840.1496,E,1,09,0.9,150.0,M,48.0,M,,*6E
$GPRMC,080121.00,A,5005.9249,N,00840.1496,E,26.1,141.0,010126,,,A*61
$GPGGA,080122.00,5005.9192,N,00840.1567,E,1,09,0.9,150.0,M,48.0,M,,*67
$GPRMC,080122.00,A,5005.9192,N,00840.1567,E,26.1,141.0,010126,,,A*68
$GPGGA,080123.00,5005.9134,N,00840.1634,E,1,09,0.9,150.0,M,48.0,M,,*6F
$GPRMC,080123.00,A,5005.9134,N,00840.1634,E,26.1,143.7,010126,,,A*65
$GPGGA,080124.00,5005.9077,N,00840.1702,E,1,09,0.9,150.0,M,48.0,M,,*6A
$GPRMC,080124.00,A,5005.9077,N,00840.1702,E,26.1,142.3,010126,,,A*65
$GPGGA,080125.00,5005.9019,N,00840.1769,E,1,09,0.9,150.0,M,48.0,M,,*6E
$GPRMC,080125.00,A,5005.9019,N,00840.1769,E,26.1,144.9,010126,,,A*6D
$GPGGA,080126.00,5005.8960,N,00840.1836,E,1,09,0.9,150.0,M,48.0,M,,*6E
$GPRMC,080126.00,A,5005.8960,N,00840.1836,E,26.1,143.5,010126,,,A*66
$GPGGA,080127.00,5005.8902,N,00840.1903,E,1,09,0.9,150.0,M,48.0,M,,*6C
$GPRMC,080127.00,A,5005.8902,N,00840.1903,E,26.1,141.9,010126,,,A*6A
$GPGGA,080128.00,5005.8845,N,00840.1972,E,1,09,0.9,150.0,M,48.0,M,,*67
$GPRMC,080128.00,A,5005.8845,N,00840.1972,E,26.1,142.6,010126,,,A*6D
$GPGGA,080129.00,5005.8788,N,00840.2040,E,1,09,0.9,150.0,M,48.0,M,,*63
$GPRMC,080129.00,A,5005.8788,N,00840.2040,E,26.1,142.6,010126,,,A*69
$GPGGA,080130.00,5005.8730,N,00840.2109,E,1,09,0.9,150.0,M,48.0,M,,*64
$GPRMC,080130.00,A,5005.8730,N,00840.2109,E,26.1,142.6,010126,,,A*6E
$GPGGA,080131.00,5005.8673,N,00840.2178,E,1,09,0.9,150.0,M,48.0,M,,*65
$GPRMC,080131.00,A,5005.8673,N,00840.2178,E,26.1,142.6,010126,,,A*6F
$GPGGA,080132.00,5005.8605,N,00840.2198,E,1,09,0.9,150.0,M,48.0,M,,*69
$GPRMC,080132.00,A,5005.8605,N,00840.2198,E,27.2,164.3,010126,,,A*60
$GPGGA,080133.00,5005.8531,N,00840.2216,E,1,09,0.9,150.0,M,48.0,M,,*69
$GPRMC,080133.00,A,5005.8531,N,00840.2216,E,27.2,179.4,010126,,,A*6B
$GPGGA,080134.00,5005.8456,N,00840.2210,E,1,09,0.9,150.0,M,48.0,M,,*68
$GPRMC,080134.00,A,5005.8456,N,00840.2210,E,27.2,194.9,010126,,,A*64
$GPGGA,080135.00,5005.8386,N,00840.2167,E,1,09,0.9,150.0,M,48.0,M,,*60
$GPRMC,080135.00,A,5005.8386,N,00840.2167,E,27.2,212.7,010126,,,A*6F
$GPGGA,080136.00,5005.8324,N,00840.2099,E,1,09,0.9,150.0,M,48.0,M,,*6B
$GPRMC,080136.00,A,5005.8324,N,00840.2099,E,27.2,216.5,010126,,,A*62
$GPGGA,080137.00,5005.8263,N,00840.2029,E,1,09,0.9,150.0,M,48.0,M,,*63
$GPRMC,080137.00,A,5005.8263,N,00840.2029,E,27.2,216.4,010126,,,A*6B
$GPGGA,080138.00,5005.8203,N,00840.1959,E,1,09,0.9,150.0,M,48.0,M,,*67
$GPRMC,080138.00,A,5005.8203,N,00840.1959,E,27.2,216.4,010126,,,A*6F
$GPGGA,080139.00,5005.8142,N,00840.1889,E,1,09,0.9,150.0,M,48.0,M,,*6C
$GPRMC,080139.00,A,5005.8142,N,00840.1889,E,27.2,216.4,010126,,,A*64
$GPGGA,080140.00,5005.8081,N,00840.1819,E,1,09,0.9,150.0,M,48.0,M,,*65
$GPRMC,080140.00,A,5005.8081,N,00840.1819,E,27.2,216.4,010126,,,A*6D
$GPGGA,080141.00,5005.8020,N,00840.1750,E,1,09,0.9,150.0,M,48.0,M,,*6D
$GPRMC,080141.00,A,5005.8020,N,00840.1750,E,27.2,215.8,010126,,,A*6A
$GPGGA,080142.00,5005.7958,N,00840.1681,E,1,09,0.9,150.0,M,48.0,M,,*6A
$GPRMC,080142.00,A,5005.7958,N,00840.1681,E,27.2,215.8,010126,,,A*6D
$GPGGA,080143.00,5005.7897,N,00840.1612,E,1,09,0.9,150.0,M,48.0,M,,*63
$GPRMC,080143.00,A,5005.7897,N,00840.1612,E,27.2,215.8,010126,,,A*64
$GPGGA,080144.00,5005.7836,N,00840.1543,E,1,09,0.9,150.0,M,48.0,M,,*68
$GPRMC,080144.00,A,5005.7836,N,00840.1543,E,27.2,215.8,010126,,,A*6F
$GPGGA,080145.00,5005.7775,N,00840.1473,E,1,09,0.9,150.0,M,48.0,M,,*63
$GPRMC,080145.00,A,5005.7775,N,00840.1473,E,27.2,217.4,010126,,,A*6A
$GPGGA,080146.00,5005.7715,N,00840.1401,E,1,09,0.9,150.0,M,48.0,M,,*63
$GPRMC,080146.00,A,5005.7715,N,00840.1401,E,27.2,217.4,010126,,,A*6A
$GPGGA,080147.00,5005.7655,N,00840.1329,E,1,09,0.9,150.0,M,48.0,M,,*6A
$GPRMC,080147.00,A,5005.7655,N,00840.1329,E,27.2,217.4,010126,,,A*63
$GPGGA,080148.00,5005.7595,N,00840.1258,E,1,09,0.9,150.0,M,48.0,M,,*6D
$GPRMC,080148.00,A,5005.7595,N,00840.1258,E,27.2,217.4,010126,,,A*64
$GPGGA,080149.00,5005.7535,N,00840.1186,E,1,09,0.9,150.0,M,48.0,M,,*66
$GPRMC,080149.00,A,5005.7535,N,00840.1186,E,27.2,217.4,010126,,,A*6F
$GPGGA,080150.00,5005.7475,N,00840.1115,E,1,09,0.9,150.0,M,48.0,M,,*61
$GPRMC,080150.00,A,5005.7475,N,00840.1115,E,27.2,217.4,010126,,,A*68
$GPGGA,080151.00,5005.7415,N,00840.1043,E,1,09,0.9,150.0,M,48.0,M,,*64
$GPRMC,080151.00,A,5005.7415,N,00840.1043,E,27.2,217.4,010126,,,A*6D
$GPGGA,080152.00,5005.7354,N,00840.0972,E,1,09,0.9,150.0,M,48.0,M,,*6F
$GPRMC,080152.00,A,5005.7354,N,00840.0972,E,27.2,217.4,010126,,,A*66
$GPGGA,080153.00,5005.7294,N,00840.0900,E,1,09,0.9,150.0,M,48.0,M,,*66
$GPRMC,080153.00,A,5005.7294,N,00840.0900,E,27.2,217.4,010126,,,A*6F
$GPGGA,080154.00,5005.7234,N,00840.0829,E,1,09,0.9,150.0,M,48.0,M,,*61
$GPRMC,080154.00,A,5005.7234,N,00840.0829,E,27.2,217.4,010126,,,A*68
$GPGGA,080155.00,5005.7174,N,00840.0756,E,1,09,0.9,150.0,M,48.0,M,,*60
$GPRMC,080155.00,A,5005.7174,N,00840.0756,E,27.2,217.7,010126,,,A*6A
$GPGGA,080156.00,5005.7115,N,00840.0684,E,1,09,0.9,150.0,M,48.0,M,,*6A
$GPRMC,080156.00,A,5005.7115,N,00840.0684,E,27.2,217.7,010126,,,A*60
$GPGGA,080157.00,5005.7055,N,00840.0612,E,1,09,0.9,150.0,M,48.0,M,,*61
$GPRMC,080157.00,A,5005.7055,N,00840.0612,E,27.2,217.7,010126,,,A*6B
$GPGGA,080158.00,5005.6995,N,00840.0540,E,1,09,0.9,150.0,M,48.0,M,,*6E
$GPRMC,080158.00,A,5005.6995,N,00840.0540,E,27.2,217.7,010126,,,A*64
$GPGGA,080159.00,5005.6935,N,00840.0468,E,1,09,0.9,150.0,M,48.0,M,,*6E
$GPRMC,080159.00,A,5005.6935,N,00840.0468,E,27.2,217.6,010126,,,A*65
$GPGGA,080200.00,5005.6875,N,00840.0396,E,1,09,0.9,150.0,M,48.0,M,,*62
$GPRMC,080200.00,A,5005.6875,N,00840.0396,E,27.2,217.6,010126,,,A*69
$GPGGA,080201.00,5005.6815,N,00840.0324,E,1,09,0.9,150.0,M,48.0,M,,*6C
$GPRMC,080201.00,A,5005.6815,N,00840.0324,E,27.2,217.6,010126,,,A*67
$GPGGA,080202.00,5005.6755,N,00840.0252,E,1,09,0.9,150.0,M,48.0,M,,*64
$GPRMC,080202.00,A,5005.6755,N,00840.0252,E,27.2,217.6,010126,,,A*6F
$GPGGA,080203.00,5005.6695,N,00840.0180,E,1,09,0.9,150.0,M,48.0,M,,*64
$GPRMC,080203.00,A,5005.6695,N,00840.0180,E,27.2,217.6,010126,,,A*6F
$GPGGA,080204.00,5005.6636,N,00840.0108,E,1,09,0.9,150.0,M,48.0,M,,*6A
$GPRMC,080204.00,A,5005.6636,N,00840.0108,E,27.2,217.6,010126,,,A*61
$GPGGA,080205.00,5005.6576,N,00840.0036,E,1,09,0.9,150.0,M,48.0,M,,*60
$GPRMC,080205.00,A,5005.6576,N,00840.0036,E,27.2,217.6,010126,,,A*6B
$GPGGA,080206.00,5005.6516,N,00839.9965,E,1,09,0.9,150.0,M,48.0,M,,*6D
$GPRMC,080206.00,A,5005.6516,N,00839.9965,E,27.2,217.6,010126,,,A*66
$GPGGA,080207.00,5005.6456,N,00839.9893,E,1,09,0.9,150.0,M,48.0,M,,*61
$GPRMC,080207.00,A,5005.6456,N,00839.9893,E,27.2,217.6,010126,,,A*6A
$GPGGA,080208.00,5005.6396,N,00839.9821,E,1,09,0.9,150.0,M,48.0,M,,*6C
$GPRMC,080208.00,A,5005.6396,N,00839.9821,E,27.2,217.6,010126,,,A*67
$GPGGA,080209.00,5005.6336,N,00839.9749,E,1,09,0.9,150.0,M,48.0,M,,*66
$GPRMC,080209.00,A,5005.6336,N,00839.9749,E,27.2,217.6,010126,,,A*6D
$GPGGA,080210.00,5005.6276,N,00839.9677,E,1,09,0.9,150.0,M,48.0,M,,*67
$GPRMC,080210.00,A,5005.6276,N,00839.9677,E,27.2,217.6,010126,,,A*6C
$GPGGA,080211.00,5005.6216,N,00839.9605,E,1,09,0.9,150.0,M,48.0,M,,*65
$GPRMC,080211.00,A,5005.6216,N,00839.9605,E,27.2,217.6,010126,,,A*6E
$GPGGA,080212.00,5005.6156,N,00839.9533,E,1,09,0.9,150.0,M,48.0,M,,*67
$GPRMC,080212.00,A,5005.6156,N,00839.9533,E,27.2,217.6,010126,,,A*6C
$GPGGA,080213.00,5005.6096,N,00839.9461,E,1,09,0.9,150.0,M,48.0,M,,*6D
$GPRMC,080213.00,A,5005.6096,N,00839.9461,E,27.2,217.6,010126,,,A*66
$GPGGA,080214.00,5005.6036,N,00839.9389,E,1,09,0.9,150.0,M,48.0,M,,*61
$GPRMC,080214.00,A,5005.6036,N,00839.9389,E,27.2,217.6,010126,,,A*6A
$GPGGA,080215.00,5005.6007,N,00839.9394,E,1,09,0.9,150.0,M,48.0,M,,*6E
$GPRMC,080215.00,A,5005.6007,N,00839.9394,E,24.3,78.2,010126,,,A*58
$GPGGA,080216.00,5005.6039,N,00839.9479,E,1,09,0.9,150.0,M,48.0,M,,*64
$GPRMC,080216.00,A,5005.6039,N,00839.9479,E,24.3,37.6,010126,,,A*5D
$GPGGA,080217.00,5005.6093,N,00839.9543,E,1,09,0.9,150.0,M,48.0,M,,*6D
$GPRMC,080217.00,A,5005.6093,N,00839.9543,E,24.3,37.6,010126,,,A*54
$GPGGA,080218.00,5005.6146,N,00839.9607,E,1,09,0.9,150.0,M,48.0,M,,*68
$GPRMC,080218.00,A,5005.6146,N,00839.9607,E,24.3,37.7,010126,,,A*50
$GPGGA,080219.00,5005.6199,N,00839.9671,E,1,09,0.9,150.0,M,48.0,M,,*6A
$GPRMC,080219.00,A,5005.6199,N,00839.9671,E,24.3,37.7,010126,,,A*52
$GPGGA,080220.00,5005.6253,N,00839.9735,E,1,09,0.9,150.0,M,48.0,M,,*64
$GPRMC,080220.00,A,5005.6253,N,00839.9735,E,24.3,37.7,010126,,,A*5C
$GPGGA,080221.00,5005.6306,N,00839.9799,E,1,09,0.9,150.0,M,48.0,M,,*62
$GPRMC,080221.00,A,5005.6306,N,00839.9799,E,24.3,37.6,010126,,,A*5B
$GPGGA,080222.00,5005.6359,N,00839.9864,E,1,09,0.9,150.0,M,48.0,M,,*66
$GPRMC,080222.00,A,5005.6359,N,00839.9864,E,24.3,37.6,010126,,,A*5F
$GPGGA,080223.00,5005.6413,N,00839.9928,E,1,09,0.9,150.0,M,48.0,M,,*67
$GPRMC,080223.00,A,5005.6413,N,00839.9928,E,24.3,37.6,010126,,,A*5E
$GPGGA,080224.00,5005.6466,N,00839.9992,E,1,09,0.9,150.0,M,48.0,M,,*63
$GPRMC,080224.00,A,5005.6466,N,00839.9992,E,24.3,37.6,010126,,,A*5A
$GPGGA,080225.00,5005.6519,N,00840.0056,E,1,09,0.9,150.0,M,48.0,M,,*6D
$GPRMC,080225.00,A,5005.6519,N,00840.0056,E,24.3,37.6,010126,,,A*54
$GPGGA,080226.00,5005.6573,N,00840.0120,E,1,09,0.9,150.0,M,48.0,M,,*62
$GPRMC,080226.00,A,5005.6573,N,00840.0120,E,24.3,37.6,010126,,,A*5B
$GPGGA,080227.00,5005.6626,N,00840.0184,E,1,09,0.9,150.0,M,48.0,M,,*6E
$GPRMC,080227.00,A,5005.6626,N,00840.0184,E,24.3,37.6,010126,,,A*57
$GPGGA,080228.00,5005.6679,N,00840.0248,E,1,09,0.9,150.0,M,48.0,M,,*68
$GPRMC,080228.00,A,5005.6679,N,00840.0248,E,24.3,37.6,010126,,,A*51
$GPGGA,080229.00,5005.6733,N,00840.0312,E,1,09,0.9,150.0,M,48.0,M,,*68
$GPRMC,080229.00,A,5005.6733,N,00840.0312,E,24.3,37.6,010126,,,A*51
$GPGGA,080230.00,5005.6786,N,00840.0376,E,1,09,0.9,150.0,M,48.0,M,,*6C
$GPRMC,080230.00,A,5005.6786,N,00840.0376,E,24.3,37.7,010126,,,A*54
$GPGGA,080231.00,5005.6839,N,00840.0441,E,1,09,0.9,150.0,M,48.0,M,,*65
$GPRMC,080231.00,A,5005.6839,N,00840.0441,E,24.3,37.7,010126,,,A*5D
$GPGGA,080232.00,5005.6892,N,00840.0505,E,1,09,0.9,150.0,M,48.0,M,,*66
$GPRMC,080232.00,A,5005.6892,N,00840.0505,E,24.3,37.7,010126,,,A*5E
$GPGGA,080233.00,5005.6946,N,00840.0569,E,1,09,0.9,150.0,M,48.0,M,,*65
$GPRMC,080233.00,A,5005.6946,N,00840.0569,E,24.3,37.7,010126,,,A*5D
$GPGGA,080234.00,5005.6999,N,00840.0633,E,1,09,0.9,150.0,M,48.0,M,,*6C
$GPRMC,080234.00,A,5005.6999,N,00840.0633,E,24.3,37.7,010126,,,A*54
$GPGGA,080235.00,5005.7052,N,00840.0697,E,1,09,0.9,150.0,M,48.0,M,,*6C
$GPRMC,080235.00,A,5005.7052,N,00840.0697,E,24.3,37.7,010126,,,A*54
$GPGGA,080236.00,5005.7105,N,00840.0762,E,1,09,0.9,150.0,M,48.0,M,,*67
$GPRMC,080236.00,A,5005.7105,N,00840.0762,E,24.3,37.7,010126,,,A*5F
$GPGGA,080237.00,5005.7159,N,00840.0826,E,1,09,0.9,150.0,M,48.0,M,,*60
$GPRMC,080237.00,A,5005.7159,N,00840.0826,E,24.3,37.8,010126,,,A*57
$GPGGA,080238.00,5005.7212,N,00840.0890,E,1,09,0.9,150.0,M,48.0,M,,*6E
$GPRMC,080238.00,A,5005.7212,N,00840.0890,E,24.3,37.7,010126,,,A*56
$GPGGA,080239.00,5005.7265,N,00840.0954,E,1,09,0.9,150.0,M,48.0,M,,*66
$GPRMC,080239.00,A,5005.7265,N,00840.0954,E,24.3,37.7,010126,,,A*5E
$GPGGA,080240.00,5005.7318,N,00840.1018,E,1,09,0.9,150.0,M,48.0,M,,*63
$GPRMC,080240.00,A,5005.7318,N,00840.1018,E,24.3,37.7,010126,,,A*5B
$GPGGA,080241.00,5005.7372,N,00840.1082,E,1,09,0.9,150.0,M,48.0,M,,*6D
$GPRMC,080241.00,A,5005.7372,N,00840.1082,E,24.3,37.7,010126,,,A*55
$GPGGA,080242.00,5005.7425,N,00840.1147,E,1,09,0.9,150.0,M,48.0,M,,*63
$GPRMC,080242.00,A,5005.7425,N,00840.1147,E,24.3,37.7,010126,,,A*5B
$GPGGA,080243.00,5005.7478,N,00840.1211,E,1,09,0.9,150.0,M,48.0,M,,*6A
$GPRMC,080243.00,A,5005.7478,N,00840.1211,E,24.3,37.7,010126,,,A*52
$GPGGA,080244.00,5005.7532,N,00840.1275,E,1,09,0.9,150.0,M,48.0,M,,*60
$GPRMC,080244.00,A,5005.7532,N,00840.1275,E,24.3,37.7,010126,,,A*58
$GPGGA,080245.00,5005.7585,N,00840.1339,E,1,09,0.9,150.0,M,48.0,M,,*64
$GPRMC,080245.00,A,5005.7585,N,00840.1339,E,24.3,37.7,010126,,,A*5C
$GPGGA,080246.00,5005.7638,N,00840.1403,E,1,09,0.9,150.0,M,48.0,M,,*6C
$GPRMC,080246.00,A,5005.7638,N,00840.1403,E,24.3,37.7,010126,,,A*54
$GPGGA,080247.00,5005.7692,N,00840.1467,E,1,09,0.9,150.0,M,48.0,M,,*6F
$GPRMC,080247.00,A,5005.7692,N,00840.1467,E,24.3,37.7,010126,,,A*57
$GPGGA,080248.00,5005.7745,N,00840.1532,E,1,09,0.9,150.0,M,48.0,M,,*6A
$GPRMC,080248.00,A,5005.7745,N,00840.1532,E,24.3,37.8,010126,,,A*5D
$GPGGA,080249.00,5005.7798,N,00840.1596,E,1,09,0.9,150.0,M,48.0,M,,*65
$GPRMC,080249.00,A,5005.7798,N,00840.1596,E,24.3,37.8,010126,,,A*52
$GPGGA,080250.00,5005.7851,N,00840.1660,E,1,09,0.9,150.0,M,48.0,M,,*6D
$GPRMC,080250.00,A,5005.7851,N,00840.1660,E,24.3,38.8,010126,,,A*55
$GPGGA,080251.00,5005.7904,N,00840.1726,E,1,09,0.9,150.0,M,48.0,M,,*6E
$GPRMC,080251.00,A,5005.7904,N,00840.1726,E,24.3,38.8,010126,,,A*56
$GPGGA,080252.00,5005.7956,N,00840.1792,E,1,09,0.9,150.0,M,48.0,M,,*65
$GPRMC,080252.00,A,5005.7956,N,00840.1792,E,24.3,38.8,010126,,,A*5D
$GPGGA,080253.00,5005.8009,N,00840.1858,E,1,09,0.9,150.0,M,48.0,M,,*61
$GPRMC,080253.00,A,5005.8009,N,00840.1858,E,24.3,38.8,010126,,,A*59
$GPGGA,080254.00,5005.8061,N,00840.1923,E,1,09,0.9,150.0,M,48.0,M,,*65
$GPRMC,080254.00,A,5005.8061,N,00840.1923,E,24.3,38.8,010126,,,A*5D
$GPGGA,080255.00,5005.8114,N,00840.1989,E,1,09,0.9,150.0,M,48.0,M,,*67
$GPRMC,080255.00,A,5005.8114,N,00840.1989,E,24.3,38.8,010126,,,A*5F
$GPGGA,080256.00,5005.8162,N,00840.2062,E,1,09,0.9,150.0,M,48.0,M,,*6A
$GPRMC,080256.00,A,5005.8162,N,00840.2062,E,24.3,47.1,010126,,,A*53
$GPGGA,080257.00,5005.8208,N,00840.2138,E,1,09,0.9,150.0,M,48.0,M,,*6A
$GPRMC,080257.00,A,5005.8208,N,00840.2138,E,24.3,47.1,010126,,,A*53
$GPGGA,080258.00,5005.8257,N,00840.2209,E,1,09,0.9,150.0,M,48.0,M,,*6E
$GPRMC,080258.00,A,5005.8257,N,00840.2209,E,24.3,40.8,010126,,,A*59
$GPGGA,080259.00,5005.8308,N,00840.2278,E,1,09,0.9,150.0,M,48.0,M,,*62
$GPRMC,080259.00,A,5005.8308,N,00840.2278,E,24.3,44.4,010126,,,A*5D
$GPGGA,080300.00,5005.8357,N,00840.2350,E,1,09,0.9,150.0,M,48.0,M,,*6E
$GPRMC,080300.00,A,5005.8357,N,00840.2350,E,24.3,42.7,010126,,,A*54
$GPGGA,080301.00,5005.8409,N,00840.2418,E,1,09,0.9,150.0,M,48.0,M,,*68
$GPRMC,080301.00,A,5005.8409,N,00840.2418,E,24.3,39.0,010126,,,A*59
$GPGGA,080302.00,5005.8461,N,00840.2484,E,1,09,0.9,150.0,M,48.0,M,,*60
$GPRMC,080302.00,A,5005.8461,N,00840.2484,E,24.3,39.0,010126,,,A*51
$GPGGA,080303.00,5005.8516,N,00840.2545,E,1,09,0.9,150.0,M,48.0,M,,*6C
$GPRMC,080303.00,A,5005.8516,N,00840.2545,E,24.3,33.4,010126,,,A*53
$GPGGA,080304.00,5005.8571,N,00840.2605,E,1,09,0.9,150.0,M,48.0,M,,*6D
$GPRMC,080304.00,A,5005.8571,N,00840.2605,E,24.3,35.5,010126,,,A*55
$GPGGA,080305.00,5005.8626,N,00840.2665,E,1,09,0.9,150.0,M,48.0,M,,*6B
$GPRMC,080305.00,A,5005.8626,N,00840.2665,E,24.3,34.8,010126,,,A*5F
$GPGGA,080306.00,5005.8681,N,00840.2725,E,1,09,0.9,150.0,M,48.0,M,,*60
$GPRMC,080306.00,A,5005.8681,N,00840.2725,E,24.3,34.8,010126,,,A*54
$GPGGA,080307.00,5005.8738,N,00840.2783,E,1,09,0.9,150.0,M,48.0,M,,*6E
$GPRMC,080307.00,A,5005.8738,N,00840.2783,E,24.3,33.0,010126,,,A*55
$GPGGA,080308.00,5005.8794,N,00840.2840,E,1,09,0.9,150.0,M,48.0,M,,*67
$GPRMC,080308.00,A,5005.8794,N,00840.2840,E,24.3,33.0,010126,,,A*5C
$GPGGA,080309.00,5005.8851,N,00840.2897,E,1,09,0.9,150.0,M,48.0,M,,*6A
$GPRMC,080309.00,A,5005.8851,N,00840.2897,E,24.3,33.0,010126,,,A*51
$GPGGA,080310.00,5005.8908,N,00840.2952,E,1,09,0.9,150.0,M,48.0,M,,*67
$GPRMC,080310.00,A,5005.8908,N,00840.2952,E,24.3,30.9,010126,,,A*56
$GPGGA,080311.00,5005.8965,N,00840.3007,E,1,09,0.9,150.0,M,48.0,M,,*65
$GPRMC,080311.00,A,5005.8965,N,00840.3007,E,24.3,33.9,010126,,,A*57
$GPGGA,080312.00,5005.9021,N,00840.3066,E,1,09,0.9,150.0,M,48.0,M,,*69
$GPRMC,080312.00,A,5005.9021,N,00840.3066,E,24.3,33.9,010126,,,A*5B
$GPGGA,080313.00,5005.9077,N,00840.3125,E,1,09,0.9,150.0,M,48.0,M,,*6D
$GPRMC,080313.00,A,5005.9077,N,00840.3125,E,24.3,33.9,010126,,,A*5F
$GPGGA,080314.00,5005.9133,N,00840.3183,E,1,09,0.9,150.0,M,48.0,M,,*67
$GPRMC,080314.00,A,5005.9133,N,00840.3183,E,24.3,33.9,010126,,,A*55
$GPGGA,080315.00,5005.9188,N,00840.3242,E,1,09,0.9,150.0,M,48.0,M,,*68
$GPRMC,080315.00,A,5005.9188,N,00840.3242,E,24.3,33.9,010126,,,A*5A
$GPGGA,080316.00,5005.9244,N,00840.3301,E,1,09,0.9,150.0,M,48.0,M,,*6E
$GPRMC,080316.00,A,5005.9244,N,00840.3301,E,24.3,34.1,010126,,,A*53
$GPGGA,080317.00,5005.9300,N,00840.3359,E,1,09,0.9,150.0,M,48.0,M,,*63
$GPRMC,080317.00,A,5005.9300,N,00840.3359,E,24.3,34.1,010126,,,A*5E
$GPGGA,080318.00,5005.9356,N,00840.3419,E,1,09,0.9,150.0,M,48.0,M,,*6C
$GPRMC,080318.00,A,5005.9356,N,00840.3419,E,24.3,35.0,010126,,,A*51
$GPGGA,080319.00,5005.9411,N,00840.3479,E,1,09,0.9,150.0,M,48.0,M,,*6F
$GPRMC,080319.00,A,5005.9411,N,00840.3479,E,24.3,35.0,010126,,,A*52
$GPGGA,080320.00,5005.9466,N,00840.3539,E,1,09,0.9,150.0,M,48.0,M,,*60
$GPRMC,080320.00,A,5005.9466,N,00840.3539,E,24.3,35.0,010126,,,A*5D
$GPGGA,080321.00,5005.9521,N,00840.3599,E,1,09,0.9,150.0,M,48.0,M,,*69
$GPRMC,080321.00,A,5005.9521,N,00840.3599,E,24.3,35.0,010126,,,A*54
$GPGGA,080322.00,5005.9576,N,00840.3659,E,1,09,0.9,150.0,M,48.0,M,,*67
$GPRMC,080322.00,A,5005.9576,N,00840.3659,E,24.3,34.9,010126,,,A*52
$GPGGA,080323.00,5005.9631,N,00840.3719,E,1,09,0.9,150.0,M,48.0,M,,*63
$GPRMC,080323.00,A,5005.9631,N,00840.3719,E,24.3,34.9,010126,,,A*56
$GPGGA,080324.00,5005.9687,N,00840.3780,E,1,09,0.9,150.0,M,48.0,M,,*69
$GPRMC,080324.00,A,5005.9687,N,00840.3780,E,24.3,34.9,010126,,,A*5C
$GPGGA,080325.00,5005.9742,N,00840.3840,E,1,09,0.9,150.0,M,48.0,M,,*63
$GPRMC,080325.00,A,5005.9742,N,00840.3840,E,24.3,34.8,010126,,,A*57
$GPGGA,080326.00,5005.9797,N,00840.3899,E,1,09,0.9,150.0,M,48.0,M,,*6C
$GPRMC,080326.00,A,5005.9797,N,00840.3899,E,24.3,34.8,010126,,,A*58
$GPGGA,080327.00,5005.9853,N,00840.3959,E,1,09,0.9,150.0,M,48.0,M,,*67
$GPRMC,080327.00,A,5005.9853,N,00840.3959,E,24.3,34.8,010126,,,A*53
$GPGGA,080328.00,5005.9908,N,00840.4019,E,1,09,0.9,150.0,M,48.0,M,,*6D
$GPRMC,080328.00,A,5005.9908,N,00840.4019,E,24.3,34.8,010126,,,A*59
$GPGGA,080329.00,5005.9963,N,00840.4079,E,1,09,0.9,150.0,M,48.0,M,,*67
$GPRMC,080329.00,A,5005.9963,N,00840.4079,E,24.3,34.8,010126,,,A*53
$GPGGA,080330.00,5006.0018,N,00840.4139,E,1,09,0.9,150.0,M,48.0,M,,*65
$GPRMC,080330.00,A,5006.0018,N,00840.4139,E,24.3,34.8,010126,,,A*51
$GPGGA,080331.00,5006.0074,N,00840.4199,E,1,09,0.9,150.0,M,48.0,M,,*64
$GPRMC,080331.00,A,5006.0074,N,00840.4199,E,24.3,34.8,010126,,,A*50
$GPGGA,080332.00,5006.0129,N,00840.4259,E,1,09,0.9,150.0,M,48.0,M,,*61
$GPRMC,080332.00,A,5006.0129,N,00840.4259,E,24.3,34.8,010126,,,A*55
$GPGGA,080333.00,5006.0184,N,00840.4319,E,1,09,0.9,150.0,M,48.0,M,,*62
$GPRMC,080333.00,A,5006.0184,N,00840.4319,E,24.3,34.8,010126,,,A*56
$GPGGA,080334.00,5006.0240,N,00840.4378,E,1,09,0.9,150.0,M,48.0,M,,*69
$GPRMC,080334.00,A,5006.0240,N,00840.4378,E,24.3,34.8,010126,,,A*5D
$GPGGA,080335.00,5006.0295,N,00840.4438,E,1,09,0.9,150.0,M,48.0,M,,*63
$GPRMC,080335.00,A,5006.0295,N,00840.4438,E,24.3,34.8,010126,,,A*57
$GPGGA,080336.00,5006.0350,N,00840.4498,E,1,09,0.9,150.0,M,48.0,M,,*62
$GPRMC,080336.00,A,5006.0350,N,00840.4498,E,24.3,34.8,010126,,,A*56
$GPGGA,080337.00,5006.0406,N,00840.4558,E,1,09,0.9,150.0,M,48.0,M,,*6A
$GPRMC,080337.00,A,5006.0406,N,00840.4558,E,24.3,34.7,010126,,,A*51
$GPGGA,080338.00,5006.0461,N,00840.4618,E,1,09,0.9,150.0,M,48.0,M,,*63
$GPRMC,080338.00,A,5006.0461,N,00840.4618,E,24.3,34.7,010126,,,A*58
$GPGGA,080339.00,5006.0516,N,00840.4678,E,1,09,0.9,150.0,M,48.0,M,,*65
$GPRMC,080339.00,A,5006.0516,N,00840.4678,E,24.3,34.7,010126,,,A*5E
$GPGGA,080340.00,5006.0572,N,00840.4737,E,1,09,0.9,150.0,M,48.0,M,,*63
$GPRMC,080340.00,A,5006.0572,N,00840.4737,E,24.3,35.1,010126,,,A*5F
$GPGGA,080341.00,5006.0627,N,00840.4798,E,1,09,0.9,150.0,M,48.0,M,,*64
$GPRMC,080341.00,A,5006.0627,N,00840.4798,E,24.3,35.1,010126,,,A*58
$GPGGA,080342.00,5006.0681,N,00840.4859,E,1,09,0.9,150.0,M,48.0,M,,*69
$GPRMC,080342.00,A,5006.0681,N,00840.4859,E,24.3,38.2,010126,,,A*5B
$GPGGA,080343.00,5006.0734,N,00840.4924,E,1,09,0.9,150.0,M,48.0,M,,*6C
$GPRMC,080343.00,A,5006.0734,N,00840.4924,E,24.3,38.2,010126,,,A*5E
$GPGGA,080344.00,5006.0783,N,00840.4997,E,1,09,0.9,150.0,M,48.0,M,,*6F
$GPRMC,080344.00,A,5006.0783,N,00840.4997,E,24.3,45.3,010126,,,A*56
$GPGGA,080345.00,5006.0826,N,00840.5077,E,1,09,0.9,150.0,M,48.0,M,,*68
$GPRMC,080345.00,A,5006.0826,N,00840.5077,E,24.3,56.3,010126,,,A*53
$GPGGA,080346.00,5006.0862,N,00840.5165,E,1,09,0.9,150.0,M,48.0,M,,*69
$GPRMC,080346.00,A,5006.0862,N,00840.5165,E,24.3,58.6,010126,,,A*59
$GPGGA,080347.00,5006.0897,N,00840.5255,E,1,09,0.9,150.0,M,48.0,M,,*62
$GPRMC,080347.00,A,5006.0897,N,00840.5255,E,24.3,58.6,010126,,,A*52
$GPGGA,080348.00,5006.0932,N,00840.5344,E,1,09,0.9,150.0,M,48.0,M,,*62
$GPRMC,080348.00,A,5006.0932,N,00840.5344,E,24.3,58.6,010126,,,A*52
$GPGGA,080349.00,5006.0968,N,00840.5434,E,1,09,0.9,150.0,M,48.0,M,,*6C
$GPRMC,080349.00,A,5006.0968,N,00840.5434,E,24.3,58.6,010126,,,A*5C
$GPGGA,080350.00,5006.1002,N,00840.5524,E,1,09,0.9,150.0,M,48.0,M,,*60
$GPRMC,080350.00,A,5006.1002,N,00840.5524,E,24.3,59.7,010126,,,A*50
$GPGGA,080351.00,5006.1039,N,00840.5611,E,1,09,0.9,150.0,M,48.0,M,,*6C
$GPRMC,080351.00,A,5006.1039,N,00840.5611,E,24.3,49.5,010126,,,A*5F
$GPGGA,080352.00,5006.1088,N,00840.5682,E,1,09,0.9,150.0,M,48.0,M,,*6F
$GPRMC,080352.00,A,5006.1088,N,00840.5682,E,24.3,28.7,010126,,,A*59
$GPGGA,080353.00,5006.1149,N,00840.5726,E,1,09,0.9,150.0,M,48.0,M,,*6D
$GPRMC,080353.00,A,5006.1149,N,00840.5726,E,24.3,20.4,010126,,,A*50
$GPGGA,080354.00,5006.1213,N,00840.5762,E,1,09,0.9,150.0,M,48.0,M,,*66
$GPRMC,080354.00,A,5006.1213,N,00840.5762,E,24.3,21.4,010126,,,A*5A
$GPGGA,080355.00,5006.1262,N,00840.5827,E,1,09,0.9,150.0,M,48.0,M,,*6F
$GPRMC,080355.00,A,5006.1262,N,00840.5827,E,21.8,55.3,010126,,,A*59
$GPGGA,080356.00,5006.1296,N,00840.5905,E,1,09,0.9,150.0,M,48.0,M,,*66
$GPRMC,080356.00,A,5006.1296,N,00840.5905,E,21.8,55.3,010126,,,A*50
$GPGGA,080357.00,5006.1336,N,00840.5975,E,1,09,0.9,150.0,M,48.0,M,,*6B
$GPRMC,080357.00,A,5006.1336,N,00840.5975,E,21.8,42.2,010126,,,A*5A
$GPGGA,080358.00,5006.1375,N,00840.6045,E,1,09,0.9,150.0,M,48.0,M,,*6A
$GPRMC,080358.00,A,5006.1375,N,00840.6045,E,21.8,59.9,010126,,,A*5A
$GPGGA,080359.00,5006.1406,N,00840.6126,E,1,09,0.9,150.0,M,48.0,M,,*6C
$GPRMC,080359.00,A,5006.1406,N,00840.6126,E,21.8,60.0,010126,,,A*5F
$GPGGA,080400.00,5006.1436,N,00840.6208,E,1,09,0.9,150.0,M,48.0,M,,*6B
$GPRMC,080400.00,A,5006.1436,N,00840.6208,E,21.8,60.0,010126,,,A*58
$GPGGA,080401.00,5006.1466,N,00840.6290,E,1,09,0.9,150.0,M,48.0,M,,*6E
$GPRMC,080401.00,A,5006.1466,N,00840.6290,E,21.8,60.0,010126,,,A*5D
$GPGGA,080402.00,5006.1496,N,00840.6371,E,1,09,0.9,150.0,M,48.0,M,,*6C
$GPRMC,080402.00,A,5006.1496,N,00840.6371,E,21.8,60.0,010126,,,A*5F
$GPGGA,080403.00,5006.1527,N,00840.6453,E,1,09,0.9,150.0,M,48.0,M,,*61
$GPRMC,080403.00,A,5006.1527,N,00840.6453,E,21.8,59.9,010126,,,A*51
$GPGGA,080404.00,5006.1557,N,00840.6534,E,1,09,0.9,150.0,M,48.0,M,,*61
$GPRMC,080404.00,A,5006.1557,N,00840.6534,E,21.8,59.9,010126,,,A*51
$GPGGA,080405.00,5006.1587,N,00840.6616,E,1,09,0.9,150.0,M,48.0,M,,*6E
$GPRMC,080405.00,A,5006.1587,N,00840.6616,E,21.8,59.9,010126,,,A*5E
$GPGGA,080406.00,5006.1618,N,00840.6697,E,1,09,0.9,150.0,M,48.0,M,,*61
$GPRMC,080406.00,A,5006.1618,N,00840.6697,E,21.8,59.9,010126,,,A*51
$GPGGA,080407.00,5006.1648,N,00840.6779,E,1,09,0.9,150.0,M,48.0,M,,*64
$GPRMC,080407.00,A,5006.1648,N,00840.6779,E,21.8,59.9,010126,,,A*54
$GPGGA,080408.00,5006.1679,N,00840.6860,E,1,09,0.9,150.0,M,48.0,M,,*6E
$GPRMC,080408.00,A,5006.1679,N,00840.6860,E,21.8,59.9,010126,,,A*5E
$GPGGA,080409.00,5006.1709,N,00840.6942,E,1,09,0.9,150.0,M,48.0,M,,*68
$GPRMC,080409.00,A,5006.1709,N,00840.6942,E,21.8,59.9,010126,,,A*58
$GPGGA,080410.00,5006.1739,N,00840.7023,E,1,09,0.9,150.0,M,48.0,M,,*6C
$GPRMC,080410.00,A,5006.1739,N,00840.7023,E,21.8,59.9,010126,,,A*5C
$GPGGA,080411.00,5006.1770,N,00840.7105,E,1,09,0.9,150.0,M,48.0,M,,*65
$GPRMC,080411.00,A,5006.1770,N,00840.7105,E,21.8,59.3,010126,,,A*5F
$GPGGA,080412.00,5006.1801,N,00840.7186,E,1,09,0.9,150.0,M,48.0,M,,*64
$GPRMC,080412.00,A,5006.1801,N,00840.7186,E,21.8,59.3,010126,,,A*5E
$GPGGA,080413.00,5006.1832,N,00840.7267,E,1,09,0.9,150.0,M,48.0,M,,*69
$GPRMC,080413.00,A,5006.1832,N,00840.7267,E,21.8,59.3,010126,,,A*53
$GPGGA,080414.00,5006.1863,N,00840.7348,E,1,09,0.9,150.0,M,48.0,M,,*66
$GPRMC,080414.00,A,5006.1863,N,00840.7348,E,21.8,59.3,010126,,,A*5C
$GPGGA,080415.00,5006.1893,N,00840.7429,E,1,09,0.9,150.0,M,48.0,M,,*68
$GPRMC,080415.00,A,5006.1893,N,00840.7429,E,21.8,59.3,010126,,,A*52
$GPGGA,080416.00,5006.1924,N,00840.7510,E,1,09,0.9,150.0,M,48.0,M,,*6D
$GPRMC,080416.00,A,5006.1924,N,00840.7510,E,21.8,59.3,010126,,,A*57
$GPGGA,080417.00,5006.1955,N,00840.7591,E,1,09,0.9,150.0,M,48.0,M,,*63
$GPRMC,080417.00,A,5006.1955,N,00840.7591,E,21.8,59.3,010126,,,A*59
$GPGGA,080418.00,5006.1986,N,00840.7672,E,1,09,0.9,150.0,M,48.0,M,,*6C
$GPRMC,080418.00,A,5006.1986,N,00840.7672,E,21.8,60.2,010126,,,A*5D
$GPGGA,080419.00,5006.2016,N,00840.7754,E,1,09,0.9,150.0,M,48.0,M,,*6B
$GPRMC,080419.00,A,5006.2016,N,00840.7754,E,21.8,59.8,010126,,,A*5A
$GPGGA,080420.00,5006.2046,N,00840.7835,E,1,09,0.9,150.0,M,48.0,M,,*6C
$GPRMC,080420.00,A,5006.2046,N,00840.7835,E,21.8,60.4,010126,,,A*5B
$GPGGA,080421.00,5006.2076,N,00840.7917,E,1,09,0.9,150.0,M,48.0,M,,*6F
$GPRMC,080421.00,A,5006.2076,N,00840.7917,E,21.8,60.4,010126,,,A*58
$GPGGA,080422.00,5006.2106,N,00840.7999,E,1,09,0.9,150.0,M,48.0,M,,*6C
$GPRMC,080422.00,A,5006.2106,N,00840.7999,E,21.8,59.6,010126,,,A*53
$GPGGA,080423.00,5006.2137,N,00840.8080,E,1,09,0.9,150.0,M,48.0,M,,*61
$GPRMC,080423.00,A,5006.2137,N,00840.8080,E,21.8,59.6,010126,,,A*5E
$GPGGA,080424.00,5006.2168,N,00840.8162,E,1,09,0.9,150.0,M,48.0,M,,*61
$GPRMC,080424.00,A,5006.2168,N,00840.8162,E,21.8,59.6,010126,,,A*5E
$GPGGA,080425.00,5006.2198,N,00840.8243,E,1,09,0.9,150.0,M,48.0,M,,*6F
$GPRMC,080425.00,A,5006.2198,N,00840.8243,E,21.8,59.6,010126,,,A*50
$GPGGA,080426.00,5006.2229,N,00840.8324,E,1,09,0.9,150.0,M,48.0,M,,*65
$GPRMC,080426.00,A,5006.2229,N,00840.8324,E,21.8,59.6,010126,,,A*5A
$GPGGA,080427.00,5006.2259,N,00840.8405,E,1,09,0.9,150.0,M,48.0,M,,*67
$GPRMC,080427.00,A,5006.2259,N,00840.8405,E,21.8,59.6,010126,,,A*58
$GPGGA,080428.00,5006.2290,N,00840.8487,E,1,09,0.9,150.0,M,48.0,M,,*67
$GPRMC,080428.00,A,5006.2290,N,00840.8487,E,21.8,59.6,010126,,,A*58
$GPGGA,080429.00,5006.2321,N,00840.8568,E,1,09,0.9,150.0,M,48.0,M,,*6D
$GPRMC,080429.00,A,5006.2321,N,00840.8568,E,21.8,59.6,010126,,,A*52
$GPGGA,080430.00,5006.2351,N,00840.8649,E,1,09,0.9,150.0,M,48.0,M,,*62
$GPRMC,080430.00,A,5006.2351,N,00840.8649,E,21.8,59.6,010126,,,A*5D
$GPGGA,080431.00,5006.2382,N,00840.8731,E,1,09,0.9,150.0,M,48.0,M,,*63
$GPRMC,080431.00,A,5006.2382,N,00840.8731,E,21.8,59.6,010126,,,A*5C
$GPGGA,080432.00,5006.2409,N,00840.8814,E,1,09,0.9,150.0,M,48.0,M,,*6C
$GPRMC,080432.00,A,5006.2409,N,00840.8814,E,21.8,74.0,010126,,,A*5A
$GPGGA,080433.00,5006.2425,N,00840.8905,E,1,09,0.9,150.0,M,48.0,M,,*62
$GPRMC,080433.00,A,5006.2425,N,00840.8905,E,21.8,74.0,010126,,,A*54
$GPGGA,080434.00,5006.2442,N,00840.8996,E,1,09,0.9,150.0,M,48.0,M,,*6E
$GPRMC,080434.00,A,5006.2442,N,00840.8996,E,21.8,74.0,010126,,,A*58
$GPGGA,080435.00,5006.2459,N,00840.9086,E,1,09,0.9,150.0,M,48.0,M,,*6C
$GPRMC,080435.00,A,5006.2459,N,00840.9086,E,21.8,74.0,010126,,,A*5A
$GPGGA,080436.00,5006.2483,N,00840.9173,E,1,09,0.9,150.0,M,48.0,M,,*63
$GPRMC,080436.00,A,5006.2483,N,00840.9173,E,21.8,66.3,010126,,,A*55
$GPGGA,080437.00,5006.2507,N,00840.9259,E,1,09,0.9,150.0,M,48.0,M,,*64
$GPRMC,080437.00,A,5006.2507,N,00840.9259,E,21.8,66.3,010126,,,A*52
$GPGGA,080438.00,5006.2531,N,00840.9345,E,1,09,0.9,150.0,M,48.0,M,,*62
$GPRMC,080438.00,A,5006.2531,N,00840.9345,E,21.8,66.3,010126,,,A*54
$GPGGA,080439.00,5006.2556,N,00840.9432,E,1,09,0.9,150.0,M,48.0,M,,*65
$GPRMC,080439.00,A,5006.2556,N,00840.9432,E,21.8,64.5,010126,,,A*57
$GPGGA,080440.00,5006.2581,N,00840.9517,E,1,09,0.9,150.0,M,48.0,M,,*67
$GPRMC,080440.00,A,5006.2581,N,00840.9517,E,21.8,66.1,010126,,,A*53
$GPGGA,080441.00,5006.2605,N,00840.9604,E,1,09,0.9,150.0,M,48.0,M,,*68
$GPRMC,080441.00,A,5006.2605,N,00840.9604,E,21.8,67.9,010126,,,A*55
$GPGGA,080442.00,5006.2627,N,00840.9691,E,1,09,0.9,150.0,M,48.0,M,,*67
$GPRMC,080442.00,A,5006.2627,N,00840.9691,E,21.8,67.8,010126,,,A*5B
$GPGGA,080443.00,5006.2650,N,00840.9779,E,1,09,0.9,150.0,M,48.0,M,,*61
$GPRMC,080443.00,A,5006.2650,N,00840.9779,E,21.8,67.8,010126,,,A*5D
$GPGGA,080444.00,5006.2675,N,00840.9865,E,1,09,0.9,150.0,M,48.0,M,,*63
$GPRMC,080444.00,A,5006.2675,N,00840.9865,E,21.8,65.4,010126,,,A*51
$GPGGA,080445.00,5006.2700,N,00840.9951,E,1,09,0.9,150.0,M,48.0,M,,*67
$GPRMC,080445.00,A,5006.2700,N,00840.9951,E,21.8,64.7,010126,,,A*57
$GPGGA,080446.00,5006.2726,N,00841.0036,E,1,09,0.9,150.0,M,48.0,M,,*60
$GPRMC,080446.00,A,5006.2726,N,00841.0036,E,21.8,64.7,010126,,,A*50
$GPGGA,080447.00,5006.2754,N,00841.0119,E,1,09,0.9,150.0,M,48.0,M,,*68
$GPRMC,080447.00,A,5006.2754,N,00841.0119,E,21.8,61.1,010126,,,A*5B
$GPGGA,080448.00,5006.2783,N,00841.0201,E,1,09,0.9,150.0,M,48.0,M,,*67
$GPRMC,080448.00,A,5006.2783,N,00841.0201,E,21.8,61.1,010126,,,A*54
$GPGGA,080449.00,5006.2813,N,00841.0284,E,1,09,0.9,150.0,M,48.0,M,,*6D
$GPRMC,080449.00,A,5006.2813,N,00841.0284,E,21.8,61.1,010126,,,A*5E
$GPGGA,080450.00,5006.2842,N,00841.0367,E,1,09,0.9,150.0,M,48.0,M,,*6D
$GPRMC,080450.00,A,5006.2842,N,00841.0367,E,21.8,61.1,010126,,,A*5E
$GPGGA,080451.00,5006.2871,N,00841.0449,E,1,09,0.9,150.0,M,48.0,M,,*67
$GPRMC,080451.00,A,5006.2871,N,00841.0449,E,21.8,61.0,010126,,,A*55
$GPGGA,080452.00,5006.2901,N,00841.0531,E,1,09,0.9,150.0,M,48.0,M,,*6C
$GPRMC,080452.00,A,5006.2901,N,00841.0531,E,21.8,58.5,010126,,,A*51
$GPGGA,080453.00,5006.2933,N,00841.0611,E,1,09,0.9,150.0,M,48.0,M,,*6D
$GPRMC,080453.00,A,5006.2933,N,00841.0611,E,21.8,57.4,010126,,,A*5E
$GPGGA,080454.00,5006.2966,N,00841.0690,E,1,09,0.9,150.0,M,48.0,M,,*63
$GPRMC,080454.00,A,5006.2966,N,00841.0690,E,21.8,55.3,010126,,,A*55
$GPGGA,080455.00,5006.2998,N,00841.0770,E,1,09,0.9,150.0,M,48.0,M,,*6C
$GPRMC,080455.00,A,5006.2998,N,00841.0770,E,21.8,59.9,010126,,,A*5C
$GPGGA,080456.00,5006.3032,N,00841.0848,E,1,09,0.9,150.0,M,48.0,M,,*63
$GPRMC,080456.00,A,5006.3032,N,00841.0848,E,21.8,56.0,010126,,,A*55
$GPGGA,080457.00,5006.3066,N,00841.0926,E,1,09,0.9,150.0,M,48.0,M,,*6A
$GPRMC,080457.00,A,5006.3066,N,00841.0926,E,21.8,56.0,010126,,,A*5C
$GPGGA,080458.00,5006.3100,N,00841.1003,E,1,09,0.9,150.0,M,48.0,M,,*6B
$GPRMC,080458.00,A,5006.3100,N,00841.1003,E,21.8,54.4,010126,,,A*5B
$GPGGA,080459.00,5006.3136,N,00841.1080,E,1,09,0.9,150.0,M,48.0,M,,*64
$GPRMC,080459.00,A,5006.3136,N,00841.1080,E,21.8,54.4,010126,,,A*54
$GPGGA,080500.00,5006.3171,N,00841.1156,E,1,09,0.9,150.0,M,48.0,M,,*60
$GPRMC,080500.00,A,5006.3171,N,00841.1156,E,21.8,54.4,010126,,,A*50
$GPGGA,080501.00,5006.3206,N,00841.1233,E,1,09,0.9,150.0,M,48.0,M,,*62
$GPRMC,080501.00,A,5006.3206,N,00841.1233,E,21.8,54.4,010126,,,A*52
$GPGGA,080502.00,5006.3241,N,00841.1310,E,1,09,0.9,150.0,M,48.0,M,,*62
$GPRMC,080502.00,A,5006.3241,N,00841.1310,E,21.8,51.5,010126,,,A*56
$GPGGA,080503.00,5006.3279,N,00841.1384,E,1,09,0.9,150.0,M,48.0,M,,*65
$GPRMC,080503.00,A,5006.3279,N,00841.1384,E,21.8,51.5,010126,,,A*51
$GPGGA,080504.00,5006.3317,N,00841.1457,E,1,09,0.9,150.0,M,48.0,M,,*62
$GPRMC,080504.00,A,5006.3317,N,00841.1457,E,21.8,51.5,010126,,,A*56
$GPGGA,080505.00,5006.3355,N,00841.1531,E,1,09,0.9,150.0,M,48.0,M,,*64
$GPRMC,080505.00,A,5006.3355,N,00841.1531,E,21.8,50.7,010126,,,A*53
$GPGGA,080506.00,5006.3394,N,00841.1603,E,1,09,0.9,150.0,M,48.0,M,,*68
$GPRMC,080506.00,A,5006.3394,N,00841.1603,E,21.8,48.2,010126,,,A*53
$GPGGA,080507.00,5006.3434,N,00841.1673,E,1,09,0.9,150.0,M,48.0,M,,*63
$GPRMC,080507.00,A,5006.3434,N,00841.1673,E,21.8,48.2,010126,,,A*58
$GPGGA,080508.00,5006.3475,N,00841.1742,E,1,09,0.9,150.0,M,48.0,M,,*6A
$GPRMC,080508.00,A,5006.3475,N,00841.1742,E,21.8,46.9,010126,,,A*54
$GPGGA,080509.00,5006.3517,N,00841.1811,E,1,09,0.9,150.0,M,48.0,M,,*67
$GPRMC,080509.00,A,5006.3517,N,00841.1811,E,21.8,46.9,010126,,,A*59
$GPGGA,080510.00,5006.3558,N,00841.1879,E,1,09,0.9,150.0,M,48.0,M,,*6A
$GPRMC,080510.00,A,5006.3558,N,00841.1879,E,21.8,46.8,010126,,,A*55
$GPGGA,080511.00,5006.3599,N,00841.1948,E,1,09,0.9,150.0,M,48.0,M,,*65
$GPRMC,080511.00,A,5006.3599,N,00841.1948,E,21.8,46.8,010126,,,A*5A
$GPGGA,080512.00,5006.3641,N,00841.2017,E,1,09,0.9,150.0,M,48.0,M,,*60
$GPRMC,080512.00,A,5006.3641,N,00841.2017,E,21.8,46.8,010126,,,A*5F
$GPGGA,080513.00,5006.3682,N,00841.2086,E,1,09,0.9,150.0,M,48.0,M,,*66
$GPRMC,080513.00,A,5006.3682,N,00841.2086,E,21.8,47.2,010126,,,A*52
$GPGGA,080514.00,5006.3723,N,00841.2155,E,1,09,0.9,150.0,M,48.0,M,,*64
$GPRMC,080514.00,A,5006.3723,N,00841.2155,E,21.8,45.1,010126,,,A*51
$GPGGA,080515.00,5006.3764,N,00841.2224,E,1,09,0.9,150.0,M,48.0,M,,*63
$GPRMC,080515.00,A,5006.3764,N,00841.2224,E,21.8,47.6,010126,,,A*53
$GPGGA,080516.00,5006.3808,N,00841.2289,E,1,09,0.9,150.0,M,48.0,M,,*62
$GPRMC,080516.00,A,5006.3808,N,00841.2289,E,21.8,42.9,010126,,,A*58
$GPGGA,080517.00,5006.3852,N,00841.2353,E,1,09,0.9,150.0,M,48.0,M,,*6A
$GPRMC,080517.00,A,5006.3852,N,00841.2353,E,21.8,42.9,010126,,,A*50
$GPGGA,080518.00,5006.3896,N,00841.2417,E,1,09,0.9,150.0,M,48.0,M,,*6A
$GPRMC,080518.00,A,5006.3896,N,00841.2417,E,21.8,42.9,010126,,,A*50
$GPGGA,080519.00,5006.3943,N,00841.2477,E,1,09,0.9,150.0,M,48.0,M,,*64
$GPRMC,080519.00,A,5006.3943,N,00841.2477,E,21.8,36.6,010126,,,A*52
$GPGGA,080520.00,5006.3993,N,00841.2531,E,1,09,0.9,150.0,M,48.0,M,,*60
$GPRMC,080520.00,A,5006.3993,N,00841.2531,E,21.8,34.3,010126,,,A*51
$GPGGA,080521.00,5006.4045,N,00841.2579,E,1,09,0.9,150.0,M,48.0,M,,*68
$GPRMC,080521.00,A,5006.4045,N,00841.2579,E,21.8,29.0,010126,,,A*56
$GPGGA,080522.00,5006.4099,N,00841.2620,E,1,09,0.9,150.0,M,48.0,M,,*65
$GPRMC,080522.00,A,5006.4099,N,00841.2620,E,21.8,19.0,010126,,,A*58
$GPGGA,080523.00,5006.4157,N,00841.2648,E,1,09,0.9,150.0,M,48.0,M,,*69
$GPRMC,080523.00,A,5006.4157,N,00841.2648,E,21.8,16.0,010126,,,A*5B
$GPGGA,080524.00,5006.4216,N,00841.2663,E,1,09,0.9,150.0,M,48.0,M,,*61
$GPRMC,080524.00,A,5006.4216,N,00841.2663,E,21.8,3.6,010126,,,A*61
$GPGGA,080525.00,5006.4277,N,00841.2662,E,1,09,0.9,150.0,M,48.0,M,,*66
$GPRMC,080525.00,A,5006.4277,N,00841.2662,E,21.8,354.5,010126,,,A*64
$GPGGA,080526.00,5006.4316,N,00841.2689,E,1,09,0.9,150.0,M,48.0,M,,*66
$GPRMC,080526.00,A,5006.4316,N,00841.2689,E,24.0,90.8,010126,,,A*5F
$GPGGA,080527.00,5006.4315,N,00841.2793,E,1,09,0.9,150.0,M,48.0,M,,*6E
$GPRMC,080527.00,A,5006.4315,N,00841.2793,E,24.0,90.8,010126,,,A*57
$GPGGA,080528.00,5006.4315,N,00841.2897,E,1,09,0.9,150.0,M,48.0,M,,*6A
$GPRMC,080528.00,A,5006.4315,N,00841.2897,E,24.0,89.7,010126,,,A*54
$GPGGA,080529.00,5006.4315,N,00841.3001,E,1,09,0.9,150.0,M,48.0,M,,*6D
$GPRMC,080529.00,A,5006.4315,N,00841.3001,E,24.0,89.7,010126,,,A*53
$GPGGA,080530.00,5006.4316,N,00841.3105,E,1,09,0.9,150.0,M,48.0,M,,*63
$GPRMC,080530.00,A,5006.4316,N,00841.3105,E,24.0,89.7,010126,,,A*5D
$GPGGA,080531.00,5006.4316,N,00841.3209,E,1,09,0.9,150.0,M,48.0,M,,*6D
$GPRMC,080531.00,A,5006.4316,N,00841.3209,E,24.0,89.7,010126,,,A*53
$GPGGA,080532.00,5006.4316,N,00841.3313,E,1,09,0.9,150.0,M,48.0,M,,*64
$GPRMC,080532.00,A,5006.4316,N,00841.3313,E,24.0,89.7,010126,,,A*5A
$GPGGA,080533.00,5006.4317,N,00841.3417,E,1,09,0.9,150.0,M,48.0,M,,*67
$GPRMC,080533.00,A,5006.4317,N,00841.3417,E,24.0,89.3,010126,,,A*5D
$GPGGA,080534.00,5006.4316,N,00841.3521,E,1,09,0.9,150.0,M,48.0,M,,*65
$GPRMC,080534.00,A,5006.4316,N,00841.3521,E,24.0,95.0,010126,,,A*51
$GPGGA,080535.00,5006.4310,N,00841.3625,E,1,09,0.9,150.0,M,48.0,M,,*65
$GPRMC,080535.00,A,5006.4310,N,00841.3625,E,24.0,95.0,010126,,,A*51
$GPGGA,080536.00,5006.4302,N,00841.3728,E,1,09,0.9,150.0,M,48.0,M,,*69
$GPRMC,080536.00,A,5006.4302,N,00841.3728,E,24.0,97.8,010126,,,A*57
$GPGGA,080537.00,5006.4293,N,00841.3831,E,1,09,0.9,150.0,M,48.0,M,,*66
$GPRMC,080537.00,A,5006.4293,N,00841.3831,E,24.0,97.8,010126,,,A*58
$GPGGA,080538.00,5006.4284,N,00841.3934,E,1,09,0.9,150.0,M,48.0,M,,*6B
$GPRMC,080538.00,A,5006.4284,N,00841.3934,E,24.0,97.8,010126,,,A*55
$GPGGA,080539.00,5006.4275,N,00841.4037,E,1,09,0.9,150.0,M,48.0,M,,*69
$GPRMC,080539.00,A,5006.4275,N,00841.4037,E,24.0,97.8,010126,,,A*57
$GPGGA,080540.00,5006.4265,N,00841.4141,E,1,09,0.9,150.0,M,48.0,M,,*66
$GPRMC,080540.00,A,5006.4265,N,00841.4141,E,24.0,97.8,010126,,,A*58
$GPGGA,080541.00,5006.4256,N,00841.4244,E,1,09,0.9,150.0,M,48.0,M,,*61
$GPRMC,080541.00,A,5006.4256,N,00841.4244,E,24.0,97.8,010126,,,A*5F
$GPGGA,080542.00,5006.4247,N,00841.4347,E,1,09,0.9,150.0,M,48.0,M,,*60
$GPRMC,080542.00,A,5006.4247,N,00841.4347,E,24.0,97.8,010126,,,A*5E
$GPGGA,080543.00,5006.4238,N,00841.4450,E,1,09,0.9,150.0,M,48.0,M,,*68
$GPRMC,080543.00,A,5006.4238,N,00841.4450,E,24.0,97.8,010126,,,A*56
$GPGGA,080544.00,5006.4229,N,00841.4553,E,1,09,0.9,150.0,M,48.0,M,,*6D
$GPRMC,080544.00,A,5006.4229,N,00841.4553,E,24.0,98.6,010126,,,A*52
$GPGGA,080545.00,5006.4219,N,00841.4656,E,1,09,0.9,150.0,M,48.0,M,,*69
$GPRMC,080545.00,A,5006.4219,N,00841.4656,E,24.0,98.6,010126,,,A*56
$GPGGA,080546.00,5006.4209,N,00841.4759,E,1,09,0.9,150.0,M,48.0,M,,*65
$GPRMC,080546.00,A,5006.4209,N,00841.4759,E,24.0,98.6,010126,,,A*5A
$GPGGA,080547.00,5006.4199,N,00841.4861,E,1,09,0.9,150.0,M,48.0,M,,*6A
$GPRMC,080547.00,A,5006.4199,N,00841.4861,E,24.0,98.6,010126,,,A*55
$GPGGA,080548.00,5006.4189,N,00841.4964,E,1,09,0.9,150.0,M,48.0,M,,*60
$GPRMC,080548.00,A,5006.4189,N,00841.4964,E,24.0,98.6,010126,,,A*5F
$GPGGA,080549.00,5006.4179,N,00841.5067,E,1,09,0.9,150.0,M,48.0,M,,*65
$GPRMC,080549.00,A,5006.4179,N,00841.5067,E,24.0,98.6,010126,,,A*5A
$GPGGA,080550.00,5006.4169,N,00841.5170,E,1,09,0.9,150.0,M,48.0,M,,*6B
$GPRMC,080550.00,A,5006.4169,N,00841.5170,E,24.0,98.6,010126,,,A*54
$GPGGA,080551.00,5006.4150,N,00841.5270,E,1,09,0.9,150.0,M,48.0,M,,*63
$GPRMC,080551.00,A,5006.4150,N,00841.5270,E,24.0,111.0,010126,,,A*6A
$GPGGA,080552.00,5006.4126,N,00841.5367,E,1,09,0.9,150.0,M,48.0,M,,*66
$GPRMC,080552.00,A,5006.4126,N,00841.5367,E,24.0,113.3,010126,,,A*6E
$GPGGA,080553.00,5006.4097,N,00841.5461,E,1,09,0.9,150.0,M,48.0,M,,*6D
$GPRMC,080553.00,A,5006.4097,N,00841.5461,E,24.0,124.5,010126,,,A*67
$GPGGA,080554.00,5006.4061,N,00841.5548,E,1,09,0.9,150.0,M,48.0,M,,*69
$GPRMC,080554.00,A,5006.4061,N,00841.5548,E,24.0,127.1,010126,,,A*64
$GPGGA,080555.00,5006.4013,N,00841.5620,E,1,09,0.9,150.0,M,48.0,M,,*60
$GPRMC,080555.00,A,5006.4013,N,00841.5620,E,24.0,137.1,010126,,,A*6C
$GPGGA,080556.00,5006.3964,N,00841.5690,E,1,09,0.9,150.0,M,48.0,M,,*66
$GPRMC,080556.00,A,5006.3964,N,00841.5690,E,24.0,137.5,010126,,,A*6E
$GPGGA,080557.00,5006.3915,N,00841.5761,E,1,09,0.9,150.0,M,48.0,M,,*6E
$GPRMC,080557.00,A,5006.3915,N,00841.5761,E,24.0,136.7,010126,,,A*65
$GPGGA,080558.00,5006.3866,N,00841.5833,E,1,09,0.9,150.0,M,48.0,M,,*6C
$GPRMC,080558.00,A,5006.3866,N,00841.5833,E,24.0,136.7,010126,,,A*67
$GPGGA,080559.00,5006.3818,N,00841.5904,E,1,09,0.9,150.0,M,48.0,M,,*61
$GPRMC,080559.00,A,5006.3818,N,00841.5904,E,24.0,136.7,010126,,,A*6A
$GPGGA,080600.00,5006.3769,N,00841.5976,E,1,09,0.9,150.0,M,48.0,M,,*62
$GPRMC,080600.00,A,5006.3769,N,00841.5976,E,24.0,136.7,010126,,,A*69
$GPGGA,080601.00,5006.3721,N,00841.6047,E,1,09,0.9,150.0,M,48.0,M,,*67
$GPRMC,080601.00,A,5006.3721,N,00841.6047,E,24.0,136.7,010126,,,A*6C
$GPGGA,080602.00,5006.3672,N,00841.6118,E,1,09,0.9,150.0,M,48.0,M,,*68
$GPRMC,080602.00,A,5006.3672,N,00841.6118,E,24.0,137.6,010126,,,A*63
$GPGGA,080603.00,5006.3623,N,00841.6188,E,1,09,0.9,150.0,M,48.0,M,,*64
$GPRMC,080603.00,A,5006.3623,N,00841.6188,E,24.0,137.6,010126,,,A*6F
$GPGGA,080604.00,5006.3573,N,00841.6258,E,1,09,0.9,150.0,M,48.0,M,,*6B
$GPRMC,080604.00,A,5006.3573,N,00841.6258,E,24.0,137.6,010126,,,A*60
$GPGGA,080605.00,5006.3524,N,00841.6329,E,1,09,0.9,150.0,M,48.0,M,,*6F
$GPRMC,080605.00,A,5006.3524,N,00841.6329,E,24.0,137.5,010126,,,A*67
$GPGGA,080606.00,5006.3475,N,00841.6399,E,1,09,0.9,150.0,M,48.0,M,,*62
$GPRMC,080606.00,A,5006.3475,N,00841.6399,E,24.0,137.5,010126,,,A*6A
$GPGGA,080607.00,5006.3426,N,00841.6469,E,1,09,0.9,150.0,M,48.0,M,,*6D
$GPRMC,080607.00,A,5006.3426,N,00841.6469,E,24.0,137.5,010126,,,A*65
$GPGGA,080608.00,5006.3377,N,00841.6539,E,1,09,0.9,150.0,M,48.0,M,,*65
$GPRMC,080608.00,A,5006.3377,N,00841.6539,E,24.0,137.5,010126,,,A*6D
$GPGGA,080609.00,5006.3327,N,00841.6610,E,1,09,0.9,150.0,M,48.0,M,,*69
$GPRMC,080609.00,A,5006.3327,N,00841.6610,E,24.0,137.5,010126,,,A*61
$GPGGA,080610.00,5006.3278,N,00841.6679,E,1,09,0.9,150.0,M,48.0,M,,*65
$GPRMC,080610.00,A,5006.3278,N,00841.6679,E,24.0,138.3,010126,,,A*64
$GPGGA,080611.00,5006.3218,N,00841.6726,E,1,09,0.9,150.0,M,48.0,M,,*69
$GPRMC,080611.00,A,5006.3218,N,00841.6726,E,24.0,144.1,010126,,,A*61
$GPGGA,080612.00,5006.3175,N,00841.6802,E,1,09,0.9,150.0,M,48.0,M,,*6B
$GPRMC,080612.00,A,5006.3175,N,00841.6802,E,25.0,121.2,010126,,,A*62
$GPGGA,080613.00,5006.3130,N,00841.6884,E,1,09,0.9,150.0,M,48.0,M,,*65
$GPRMC,080613.00,A,5006.3130,N,00841.6884,E,25.0,135.6,010126,,,A*6D
$GPGGA,080614.00,5006.3080,N,00841.6960,E,1,09,0.9,150.0,M,48.0,M,,*63
$GPRMC,080614.00,A,5006.3080,N,00841.6960,E,25.0,135.6,010126,,,A*6B
$GPGGA,080615.00,5006.3031,N,00841.7035,E,1,09,0.9,150.0,M,48.0,M,,*60
$GPRMC,080615.00,A,5006.3031,N,00841.7035,E,25.0,135.6,010126,,,A*68
$GPGGA,080616.00,5006.2981,N,00841.7111,E,1,09,0.9,150.0,M,48.0,M,,*67
$GPRMC,080616.00,A,5006.2981,N,00841.7111,E,25.0,139.3,010126,,,A*66
$GPGGA,080617.00,5006.2932,N,00841.7187,E,1,09,0.9,150.0,M,48.0,M,,*61
$GPRMC,080617.00,A,5006.2932,N,00841.7187,E,25.0,129.1,010126,,,A*63
$GPGGA,080618.00,5006.2908,N,00841.7287,E,1,09,0.9,150.0,M,48.0,M,,*64
$GPRMC,080618.00,A,5006.2908,N,00841.7287,E,25.0,101.5,010126,,,A*68
$GPGGA,080619.00,5006.2894,N,00841.7393,E,1,09,0.9,150.0,M,48.0,M,,*65
$GPRMC,080619.00,A,5006.2894,N,00841.7393,E,25.0,101.4,010126,,,A*68
$GPGGA,080620.00,5006.2880,N,00841.7499,E,1,09,0.9,150.0,M,48.0,M,,*67
$GPRMC,080620.00,A,5006.2880,N,00841.7499,E,25.0,101.4,010126,,,A*6A
$GPGGA,080621.00,5006.2867,N,00841.7605,E,1,09,0.9,150.0,M,48.0,M,,*68
$GPRMC,080621.00,A,5006.2867,N,00841.7605,E,25.0,101.4,010126,,,A*65
$GPGGA,080622.00,5006.2853,N,00841.7711,E,1,09,0.9,150.0,M,48.0,M,,*68
$GPRMC,080622.00,A,5006.2853,N,00841.7711,E,25.0,101.4,010126,,,A*65
$GPGGA,080623.00,5006.2839,N,00841.7818,E,1,09,0.9,150.0,M,48.0,M,,*63
$GPRMC,080623.00,A,5006.2839,N,00841.7818,E,25.0,101.4,010126,,,A*6E
$GPGGA,080624.00,5006.2825,N,00841.7924,E,1,09,0.9,150.0,M,48.0,M,,*67
$GPRMC,080624.00,A,5006.2825,N,00841.7924,E,25.0,101.4,010126,,,A*6A
$GPGGA,080625.00,5006.2812,N,00841.8030,E,1,09,0.9,150.0,M,48.0,M,,*61
$GPRMC,080625.00,A,5006.2812,N,00841.8030,E,25.0,101.4,010126,,,A*6C
$GPGGA,080626.00,5006.2798,N,00841.8136,E,1,09,0.9,150.0,M,48.0,M,,*68
$GPRMC,080626.00,A,5006.2798,N,00841.8136,E,25.0,101.4,010126,,,A*65
$GPGGA,080627.00,5006.2785,N,00841.8242,E,1,09,0.9,150.0,M,48.0,M,,*65
$GPRMC,080627.00,A,5006.2785,N,00841.8242,E,25.0,100.0,010126,,,A*6D
$GPGGA,080628.00,5006.2773,N,00841.8349,E,1,09,0.9,150.0,M,48.0,M,,*69
$GPRMC,080628.00,A,5006.2773,N,00841.8349,E,25.0,100.0,010126,,,A*61
$GPGGA,080629.00,5006.2761,N,00841.8455,E,1,09,0.9,150.0,M,48.0,M,,*61
$GPRMC,080629.00,A,5006.2761,N,00841.8455,E,25.0,100.1,010126,,,A*68
$GPGGA,080630.00,5006.2748,N,00841.8561,E,1,09,0.9,150.0,M,48.0,M,,*64
$GPRMC,080630.00,A,5006.2748,N,00841.8561,E,25.0,101.0,010126,,,A*6D
$GPGGA,080631.00,5006.2735,N,00841.8668,E,1,09,0.9,150.0,M,48.0,M,,*65
$GPRMC,080631.00,A,5006.2735,N,00841.8668,E,25.0,97.8,010126,,,A*5A
$GPGGA,080632.00,5006.2726,N,00841.8775,E,1,09,0.9,150.0,M,48.0,M,,*69
$GPRMC,080632.00,A,5006.2726,N,00841.8775,E,25.0,97.8,010126,,,A*56
$GPGGA,080633.00,5006.2717,N,00841.8882,E,1,09,0.9,150.0,M,48.0,M,,*6D
$GPRMC,080633.00,A,5006.2717,N,00841.8882,E,25.0,97.8,010126,,,A*52
$GPGGA,080634.00,5006.2707,N,00841.8989,E,1,09,0.9,150.0,M,48.0,M,,*61
$GPRMC,080634.00,A,5006.2707,N,00841.8989,E,25.0,97.8,010126,,,A*5E
$GPGGA,080635.00,5006.2698,N,00841.9097,E,1,09,0.9,150.0,M,48.0,M,,*60
$GPRMC,080635.00,A,5006.2698,N,00841.9097,E,25.0,97.8,010126,,,A*5F
$GPGGA,080636.00,5006.2689,N,00841.9204,E,1,09,0.9,150.0,M,48.0,M,,*6B
$GPRMC,080636.00,A,5006.2689,N,00841.9204,E,25.0,97.8,010126,,,A*54
$GPGGA,080637.00,5006.2679,N,00841.9311,E,1,09,0.9,150.0,M,48.0,M,,*60
$GPRMC,080637.00,A,5006.2679,N,00841.9311,E,25.0,97.8,010126,,,A*5F
$GPGGA,080638.00,5006.2670,N,00841.9418,E,1,09,0.9,150.0,M,48.0,M,,*68
$GPRMC,080638.00,A,5006.2670,N,00841.9418,E,25.0,97.8,010126,,,A*57
$GPGGA,080639.00,5006.2661,N,00841.9525,E,1,09,0.9,150.0,M,48.0,M,,*66
$GPRMC,080639.00,A,5006.2661,N,00841.9525,E,25.0,95.9,010126,,,A*5A
$GPGGA,080640.00,5006.2653,N,00841.9633,E,1,09,0.9,150.0,M,48.0,M,,*6D
$GPRMC,080640.00,A,5006.2653,N,00841.9633,E,25.0,95.9,010126,,,A*51
$GPGGA,080641.00,5006.2646,N,00841.9741,E,1,09,0.9,150.0,M,48.0,M,,*6C
$GPRMC,080641.00,A,5006.2646,N,00841.9741,E,25.0,96.6,010126,,,A*5C
$GPGGA,080642.00,5006.2639,N,00841.9848,E,1,09,0.9,150.0,M,48.0,M,,*61
$GPRMC,080642.00,A,5006.2639,N,00841.9848,E,25.0,95.9,010126,,,A*5D
$GPGGA,080643.00,5006.2632,N,00841.9956,E,1,09,0.9,150.0,M,48.0,M,,*65
$GPRMC,080643.00,A,5006.2632,N,00841.9956,E,25.0,95.1,010126,,,A*51
$GPGGA,080644.00,5006.2625,N,00842.0064,E,1,09,0.9,150.0,M,48.0,M,,*66
$GPRMC,080644.00,A,5006.2625,N,00842.0064,E,25.0,95.1,010126,,,A*52
$GPGGA,080645.00,5006.2619,N,00842.0171,E,1,09,0.9,150.0,M,48.0,M,,*6D
$GPRMC,080645.00,A,5006.2619,N,00842.0171,E,25.0,95.1,010126,,,A*59
$GPGGA,080646.00,5006.2613,N,00842.0279,E,1,09,0.9,150.0,M,48.0,M,,*6F
$GPRMC,080646.00,A,5006.2613,N,00842.0279,E,25.0,95.1,010126,,,A*5B
$GPGGA,080647.00,5006.2607,N,00842.0387,E,1,09,0.9,150.0,M,48.0,M,,*6B
$GPRMC,080647.00,A,5006.2607,N,00842.0387,E,25.0,95.1,010126,,,A*5F
$GPGGA,080648.00,5006.2601,N,00842.0495,E,1,09,0.9,150.0,M,48.0,M,,*66
$GPRMC,080648.00,A,5006.2601,N,00842.0495,E,25.0,95.1,010126,,,A*52
$GPGGA,080649.00,5006.2595,N,00842.0602,E,1,09,0.9,150.0,M,48.0,M,,*65
$GPRMC,080649.00,A,5006.2595,N,00842.0602,E,25.0,94.0,010126,,,A*51
$GPGGA,080650.00,5006.2590,N,00842.0710,E,1,09,0.9,150.0,M,48.0,M,,*6A
$GPRMC,080650.00,A,5006.2590,N,00842.0710,E,25.0,94.0,010126,,,A*5E
$GPGGA,080651.00,5006.2585,N,00842.0818,E,1,09,0.9,150.0,M,48.0,M,,*68
$GPRMC,080651.00,A,5006.2585,N,00842.0818,E,25.0,94.2,010126,,,A*5E
$GPGGA,080652.00,5006.2580,N,00842.0926,E,1,09,0.9,150.0,M,48.0,M,,*62
$GPRMC,080652.00,A,5006.2580,N,00842.0926,E,25.0,94.2,010126,,,A*54
$GPGGA,080653.00,5006.2574,N,00842.1034,E,1,09,0.9,150.0,M,48.0,M,,*63
$GPRMC,080653.00,A,5006.2574,N,00842.1034,E,25.0,95.3,010126,,,A*55
$GPGGA,080654.00,5006.2568,N,00842.1142,E,1,09,0.9,150.0,M,48.0,M,,*69
$GPRMC,080654.00,A,5006.2568,N,00842.1142,E,25.0,95.3,010126,,,A*5F
$GPGGA,080655.00,5006.2562,N,00842.1249,E,1,09,0.9,150.0,M,48.0,M,,*6A
$GPRMC,080655.00,A,5006.2562,N,00842.1249,E,25.0,95.3,010126,,,A*5C
$GPGGA,080656.00,5006.2555,N,00842.1357,E,1,09,0.9,150.0,M,48.0,M,,*63
$GPRMC,080656.00,A,5006.2555,N,00842.1357,E,25.0,95.3,010126,,,A*55
$GPGGA,080657.00,5006.2549,N,00842.1465,E,1,09,0.9,150.0,M,48.0,M,,*69
$GPRMC,080657.00,A,5006.2549,N,00842.1465,E,25.0,95.3,010126,,,A*5F
$GPGGA,080658.00,5006.2542,N,00842.1573,E,1,09,0.9,150.0,M,48.0,M,,*6B
$GPRMC,080658.00,A,5006.2542,N,00842.1573,E,25.0,95.3,010126,,,A*5D
$GPGGA,080659.00,5006.2536,N,00842.1680,E,1,09,0.9,150.0,M,48.0,M,,*66
$GPRMC,080659.00,A,5006.2536,N,00842.1680,E,25.0,95.3,010126,,,A*50
$GPGGA,080700.00,5006.2528,N,00842.1788,E,1,09,0.9,150.0,M,48.0,M,,*6D
$GPRMC,080700.00,A,5006.2528,N,00842.1788,E,25.0,99.1,010126,,,A*55
$GPGGA,080701.00,5006.2518,N,00842.1895,E,1,09,0.9,150.0,M,48.0,M,,*6C
$GPRMC,080701.00,A,5006.2518,N,00842.1895,E,25.0,99.1,010126,,,A*54
$GPGGA,080702.00,5006.2508,N,00842.2002,E,1,09,0.9,150.0,M,48.0,M,,*6B
$GPRMC,080702.00,A,5006.2508,N,00842.2002,E,25.0,95.4,010126,,,A*5A
$GPGGA,080703.00,5006.2501,N,00842.2110,E,1,09,0.9,150.0,M,48.0,M,,*61
$GPRMC,080703.00,A,5006.2501,N,00842.2110,E,25.0,95.4,010126,,,A*50
$GPGGA,080704.00,5006.2495,N,00842.2217,E,1,09,0.9,150.0,M,48.0,M,,*6E
$GPRMC,080704.00,A,5006.2495,N,00842.2217,E,25.0,95.4,010126,,,A*5F
$GPGGA,080705.00,5006.2492,N,00842.2325,E,1,09,0.9,150.0,M,48.0,M,,*68
$GPRMC,080705.00,A,5006.2492,N,00842.2325,E,25.0,92.3,010126,,,A*59
$GPGGA,080706.00,5006.2489,N,00842.2433,E,1,09,0.9,150.0,M,48.0,M,,*61
$GPRMC,080706.00,A,5006.2489,N,00842.2433,E,25.0,92.3,010126,,,A*50
$GPGGA,080707.00,5006.2490,N,00842.2541,E,1,09,0.9,150.0,M,48.0,M,,*6C
$GPRMC,080707.00,A,5006.2490,N,00842.2541,E,25.0,84.9,010126,,,A*50
$GPGGA,080708.00,5006.2499,N,00842.2648,E,1,09,0.9,150.0,M,48.0,M,,*60
$GPRMC,080708.00,A,5006.2499,N,00842.2648,E,25.0,74.1,010126,,,A*5B
$GPGGA,080709.00,5006.2524,N,00842.2749,E,1,09,0.9,150.0,M,48.0,M,,*66
$GPRMC,080709.00,A,5006.2524,N,00842.2749,E,25.0,61.2,010126,,,A*5A
$GPGGA,080710.00,5006.2564,N,00842.2836,E,1,09,0.9,150.0,M,48.0,M,,*6D
$GPRMC,080710.00,A,5006.2564,N,00842.2836,E,25.0,48.3,010126,,,A*5B
$GPGGA,080711.00,5006.2618,N,00842.2904,E,1,09,0.9,150.0,M,48.0,M,,*64
$GPRMC,080711.00,A,5006.2618,N,00842.2904,E,25.0,32.6,010126,,,A*5A
$GPGGA,080712.00,5006.2676,N,00842.2962,E,1,09,0.9,150.0,M,48.0,M,,*6F
$GPRMC,080712.00,A,5006.2676,N,00842.2962,E,25.0,32.6,010126,,,A*51
$GPGGA,080713.00,5006.2735,N,00842.3020,E,1,09,0.9,150.0,M,48.0,M,,*66
$GPRMC,080713.00,A,5006.2735,N,00842.3020,E,25.0,32.6,010126,,,A*58
$GPGGA,080714.00,5006.2795,N,00842.3074,E,1,09,0.9,150.0,M,48.0,M,,*6A
$GPRMC,080714.00,A,5006.2795,N,00842.3074,E,25.0,29.1,010126,,,A*59
$GPGGA,080715.00,5006.2856,N,00842.3126,E,1,09,0.9,150.0,M,48.0,M,,*6D
$GPRMC,080715.00,A,5006.2856,N,00842.3126,E,25.0,29.1,010126,,,A*5E
$GPGGA,080716.00,5006.2916,N,00842.3179,E,1,09,0.9,150.0,M,48.0,M,,*61
$GPRMC,080716.00,A,5006.2916,N,00842.3179,E,25.0,29.1,010126,,,A*52
$GPGGA,080717.00,5006.2977,N,00842.3232,E,1,09,0.9,150.0,M,48.0,M,,*6B
$GPRMC,080717.00,A,5006.2977,N,00842.3232,E,25.0,29.3,010126,,,A*5A
$GPGGA,080718.00,5006.3037,N,00842.3287,E,1,09,0.9,150.0,M,48.0,M,,*66
$GPRMC,080718.00,A,5006.3037,N,00842.3287,E,25.0,32.0,010126,,,A*5E
$GPGGA,080719.00,5006.3095,N,00842.3344,E,1,09,0.9,150.0,M,48.0,M,,*61
$GPRMC,080719.00,A,5006.3095,N,00842.3344,E,25.0,32.0,010126,,,A*59
$GPGGA,080720.00,5006.3155,N,00842.3399,E,1,09,0.9,150.0,M,48.0,M,,*66
$GPRMC,080720.00,A,5006.3155,N,00842.3399,E,25.0,29.1,010126,,,A*55
$GPGGA,080721.00,5006.3207,N,00842.3469,E,1,09,0.9,150.0,M,48.0,M,,*6B
$GPRMC,080721.00,A,5006.3207,N,00842.3469,E,25.0,46.6,010126,,,A*56
$GPGGA,080722.00,5006.3250,N,00842.3554,E,1,09,0.9,150.0,M,48.0,M,,*65
$GPRMC,080722.00,A,5006.3250,N,00842.3554,E,25.0,63.2,010126,,,A*5B
$GPGGA,080723.00,5006.3279,N,00842.3652,E,1,09,0.9,150.0,M,48.0,M,,*6A
$GPRMC,080723.00,A,5006.3279,N,00842.3652,E,25.0,78.3,010126,,,A*5F
$GPGGA,080724.00,5006.3290,N,00842.3758,E,1,09,0.9,150.0,M,48.0,M,,*61
$GPRMC,080724.00,A,5006.3290,N,00842.3758,E,25.0,96.3,010126,,,A*54
$GPGGA,080725.00,5006.3282,N,00842.3866,E,1,09,0.9,150.0,M,48.0,M,,*61
$GPRMC,080725.00,A,5006.3282,N,00842.3866,E,25.0,96.3,010126,,,A*54
$GPGGA,080726.00,5006.3275,N,00842.3973,E,1,09,0.9,150.0,M,48.0,M,,*6F
$GPRMC,080726.00,A,5006.3275,N,00842.3973,E,25.0,96.3,010126,,,A*5A
$GPGGA,080727.00,5006.3267,N,00842.4081,E,1,09,0.9,150.0,M,48.0,M,,*6E
$GPRMC,080727.00,A,5006.3267,N,00842.4081,E,25.0,96.3,010126,,,A*5B
$GPGGA,080728.00,5006.3259,N,00842.4188,E,1,09,0.9,150.0,M,48.0,M,,*64
$GPRMC,080728.00,A,5006.3259,N,00842.4188,E,25.0,96.4,010126,,,A*56
$GPGGA,080729.00,5006.3252,N,00842.4296,E,1,09,0.9,150.0,M,48.0,M,,*62
$GPRMC,080729.00,A,5006.3252,N,00842.4296,E,25.0,96.4,010126,,,A*50
$GPGGA,080730.00,5006.3244,N,00842.4403,E,1,09,0.9,150.0,M,48.0,M,,*67
$GPRMC,080730.00,A,5006.3244,N,00842.4403,E,25.0,96.4,010126,,,A*55
$GPGGA,080731.00,5006.3236,N,00842.4511,E,1,09,0.9,150.0,M,48.0,M,,*61
$GPRMC,080731.00,A,5006.3236,N,00842.4511,E,25.0,96.4,010126,,,A*53
$GPGGA,080732.00,5006.3228,N,00842.4619,E,1,09,0.9,150.0,M,48.0,M,,*66
$GPRMC,080732.00,A,5006.3228,N,00842.4619,E,25.0,96.4,010126,,,A*54
$GPGGA,080733.00,5006.3221,N,00842.4726,E,1,09,0.9,150.0,M,48.0,M,,*63
$GPRMC,080733.00,A,5006.3221,N,00842.4726,E,25.0,96.4,010126,,,A*51
$GPGGA,080734.00,5006.3213,N,00842.4834,E,1,09,0.9,150.0,M,48.0,M,,*69
$GPRMC,080734.00,A,5006.3213,N,00842.4834,E,25.0,95.9,010126,,,A*55
$GPGGA,080735.00,5006.3206,N,00842.4941,E,1,09,0.9,150.0,M,48.0,M,,*6F
$GPRMC,080735.00,A,5006.3206,N,00842.4941,E,25.0,95.9,010126,,,A*53
$GPGGA,080736.00,5006.3199,N,00842.5049,E,1,09,0.9,150.0,M,48.0,M,,*69
$GPRMC,080736.00,A,5006.3199,N,00842.5049,E,25.0,95.9,010126,,,A*55
$GPGGA,080737.00,5006.3192,N,00842.5156,E,1,09,0.9,150.0,M,48.0,M,,*6C
$GPRMC,080737.00,A,5006.3192,N,00842.5156,E,25.0,95.9,010126,,,A*50
$GPGGA,080738.00,5006.3184,N,00842.5264,E,1,09,0.9,150.0,M,48.0,M,,*66
$GPRMC,080738.00,A,5006.3184,N,00842.5264,E,25.0,95.9,010126,,,A*5A
$GPGGA,080739.00,5006.3177,N,00842.5372,E,1,09,0.9,150.0,M,48.0,M,,*6D
$GPRMC,080739.00,A,5006.3177,N,00842.5372,E,25.0,95.9,010126,,,A*51
$GPGGA,080740.00,5006.3169,N,00842.5479,E,1,09,0.9,150.0,M,48.0,M,,*60
$GPRMC,080740.00,A,5006.3169,N,00842.5479,E,25.0,97.2,010126,,,A*55
$GPGGA,080741.00,5006.3160,N,00842.5586,E,1,09,0.9,150.0,M,48.0,M,,*69
$GPRMC,080741.00,A,5006.3160,N,00842.5586,E,25.0,97.2,010126,,,A*5C
$GPGGA,080742.00,5006.3152,N,00842.5694,E,1,09,0.9,150.0,M,48.0,M,,*6B
$GPRMC,080742.00,A,5006.3152,N,00842.5694,E,25.0,97.2,010126,,,A*5E
$GPGGA,080743.00,5006.3143,N,00842.5801,E,1,09,0.9,150.0,M,48.0,M,,*68
$GPRMC,080743.00,A,5006.3143,N,00842.5801,E,25.0,97.2,010126,,,A*5D
$GPGGA,080744.00,5006.3135,N,00842.5909,E,1,09,0.9,150.0,M,48.0,M,,*67
$GPRMC,080744.00,A,5006.3135,N,00842.5909,E,25.0,96.8,010126,,,A*59
$GPGGA,080745.00,5006.3126,N,00842.6016,E,1,09,0.9,150.0,M,48.0,M,,*60
$GPRMC,080745.00,A,5006.3126,N,00842.6016,E,25.0,96.8,010126,,,A*5E
$GPGGA,080746.00,5006.3118,N,00842.6123,E,1,09,0.9,150.0,M,48.0,M,,*69
$GPRMC,080746.00,A,5006.3118,N,00842.6123,E,25.0,96.8,010126,,,A*57
$GPGGA,080747.00,5006.3110,N,00842.6231,E,1,09,0.9,150.0,M,48.0,M,,*60
$GPRMC,080747.00,A,5006.3110,N,00842.6231,E,25.0,96.8,010126,,,A*5E
$GPGGA,080748.00,5006.3102,N,00842.6338,E,1,09,0.9,150.0,M,48.0,M,,*64
$GPRMC,080748.00,A,5006.3102,N,00842.6338,E,25.0,96.8,010126,,,A*5A
$GPGGA,080749.00,5006.3094,N,00842.6446,E,1,09,0.9,150.0,M,48.0,M,,*65
$GPRMC,080749.00,A,5006.3094,N,00842.6446,E,25.0,96.8,010126,,,A*5B
$GPGGA,080750.00,5006.3085,N,00842.6553,E,1,09,0.9,150.0,M,48.0,M,,*68
$GPRMC,080750.00,A,5006.3085,N,00842.6553,E,25.0,95.3,010126,,,A*5E
$GPGGA,080751.00,5006.3077,N,00842.6661,E,1,09,0.9,150.0,M,48.0,M,,*66
$GPRMC,080751.00,A,5006.3077,N,00842.6661,E,25.0,97.2,010126,,,A*53
$GPGGA,080752.00,5006.3121,N,00842.6700,E,1,09,0.9,150.0,M,48.0,M,,*61
$GPRMC,080752.00,A,5006.3121,N,00842.6700,E,20.2,2.9,010126,,,A*64
$GPGGA,080753.00,5006.3177,N,00842.6702,E,1,09,0.9,150.0,M,48.0,M,,*61
$GPRMC,080753.00,A,5006.3177,N,00842.6702,E,20.2,1.0,010126,,,A*6E
$GPGGA,080754.00,5006.3233,N,00842.6706,E,1,09,0.9,150.0,M,48.0,M,,*61
$GPRMC,080754.00,A,5006.3233,N,00842.6706,E,20.2,3.0,010126,,,A*6C
$GPGGA,080755.00,5006.3289,N,00842.6711,E,1,09,0.9,150.0,M,48.0,M,,*67
$GPRMC,080755.00,A,5006.3289,N,00842.6711,E,20.2,4.2,010126,,,A*6F
$GPGGA,080756.00,5006.3345,N,00842.6717,E,1,09,0.9,150.0,M,48.0,M,,*63
$GPRMC,080756.00,A,5006.3345,N,00842.6717,E,20.2,4.2,010126,,,A*6B
$GPGGA,080757.00,5006.3401,N,00842.6723,E,1,09,0.9,150.0,M,48.0,M,,*62
$GPRMC,080757.00,A,5006.3401,N,00842.6723,E,20.2,3.5,010126,,,A*6A
$GPGGA,080758.00,5006.3456,N,00842.6728,E,1,09,0.9,150.0,M,48.0,M,,*64
$GPRMC,080758.00,A,5006.3456,N,00842.6728,E,20.2,3.5,010126,,,A*6C
$GPGGA,080759.00,5006.3512,N,00842.6734,E,1,09,0.9,150.0,M,48.0,M,,*69
$GPRMC,080759.00,A,5006.3512,N,00842.6734,E,20.2,3.5,010126,,,A*61
$GPGGA,080800.00,5006.3568,N,00842.6739,E,1,09,0.9,150.0,M,48.0,M,,*6A
$GPRMC,080800.00,A,5006.3568,N,00842.6739,E,20.2,3.5,010126,,,A*62
$GPGGA,080801.00,5006.3624,N,00842.6745,E,1,09,0.9,150.0,M,48.0,M,,*6B
$GPRMC,080801.00,A,5006.3624,N,00842.6745,E,20.2,3.5,010126,,,A*63
$GPGGA,080802.00,5006.3680,N,00842.6750,E,1,09,0.9,150.0,M,48.0,M,,*62
$GPRMC,080802.00,A,5006.3680,N,00842.6750,E,20.2,3.5,010126,,,A*6A
$GPGGA,080803.00,5006.3736,N,00842.6755,E,1,09,0.9,150.0,M,48.0,M,,*6A
$GPRMC,080803.00,A,5006.3736,N,00842.6755,E,20.2,3.5,010126,,,A*62
$GPGGA,080804.00,5006.3792,N,00842.6761,E,1,09,0.9,150.0,M,48.0,M,,*64
$GPRMC,080804.00,A,5006.3792,N,00842.6761,E,20.2,3.5,010126,,,A*6C
$GPGGA,080805.00,5006.3848,N,00842.6766,E,1,09,0.9,150.0,M,48.0,M,,*6A
$GPRMC,080805.00,A,5006.3848,N,00842.6766,E,20.2,3.5,010126,,,A*62
$GPGGA,080806.00,5006.3904,N,00842.6771,E,1,09,0.9,150.0,M,48.0,M,,*66
$GPRMC,080806.00,A,5006.3904,N,00842.6771,E,20.2,3.5,010126,,,A*6E
$GPGGA,080807.00,5006.3960,N,00842.6777,E,1,09,0.9,150.0,M,48.0,M,,*63
$GPRMC,080807.00,A,5006.3960,N,00842.6777,E,20.2,3.5,010126,,,A*6B
$GPGGA,080808.00,5006.4016,N,00842.6782,E,1,09,0.9,150.0,M,48.0,M,,*69
$GPRMC,080808.00,A,5006.4016,N,00842.6782,E,20.2,3.5,010126,,,A*61
$GPGGA,080809.00,5006.4072,N,00842.6787,E,1,09,0.9,150.0,M,48.0,M,,*6F
$GPRMC,080809.00,A,5006.4072,N,00842.6787,E,20.2,3.5,010126,,,A*67
$GPGGA,080810.00,5006.4128,N,00842.6792,E,1,09,0.9,150.0,M,48.0,M,,*6D
$GPRMC,080810.00,A,5006.4128,N,00842.6792,E,20.2,3.5,010126,,,A*65
$GPGGA,080811.00,5006.4183,N,00842.6798,E,1,09,0.9,150.0,M,48.0,M,,*67
$GPRMC,080811.00,A,5006.4183,N,00842.6798,E,20.2,3.5,010126,,,A*6F
$GPGGA,080812.00,5006.4239,N,00842.6803,E,1,09,0.9,150.0,M,48.0,M,,*6B
$GPRMC,080812.00,A,5006.4239,N,00842.6803,E,20.2,3.5,010126,,,A*63
$GPGGA,080813.00,5006.4295,N,00842.6808,E,1,09,0.9,150.0,M,48.0,M,,*67
$GPRMC,080813.00,A,5006.4295,N,00842.6808,E,20.2,3.5,010126,,,A*6F
$GPGGA,080814.00,5006.4351,N,00842.6813,E,1,09,0.9,150.0,M,48.0,M,,*63
$GPRMC,080814.00,A,5006.4351,N,00842.6813,E,20.2,2.5,010126,,,A*6A
$GPGGA,080815.00,5006.4380,N,00842.6868,E,1,09,0.9,150.0,M,48.0,M,,*62
$GPRMC,080815.00,A,5006.4380,N,00842.6868,E,9.1,68.3,010126,,,A*69
$GPGGA,080816.00,5006.4397,N,00842.6897,E,1,09,0.9,150.0,M,48.0,M,,*67
$GPRMC,080816.00,A,5006.4397,N,00842.6897,E,9.1,34.7,010126,,,A*61
$GPGGA,080817.00,5006.4419,N,00842.6913,E,1,09,0.9,150.0,M,48.0,M,,*6A
$GPRMC,080817.00,A,5006.4419,N,00842.6913,E,9.1,17.8,010126,,,A*62
$GPGGA,080818.00,5006.4445,N,00842.6914,E,1,09,0.9,150.0,M,48.0,M,,*6B
$GPRMC,080818.00,A,5006.4445,N,00842.6914,E,9.1,343.3,010126,,,A*5A
$GPGGA,080819.00,5006.4467,N,00842.6898,E,1,09,0.9,150.0,M,48.0,M,,*6F
$GPRMC,080819.00,A,5006.4467,N,00842.6898,E,9.1,325.3,010126,,,A*5E
$GPGGA,080820.00,5006.4485,N,00842.6870,E,1,09,0.9,150.0,M,48.0,M,,*6F
$GPRMC,080820.00,A,5006.4485,N,00842.6870,E,9.1,310.1,010126,,,A*5A
$GPGGA,080821.00,5006.4493,N,00842.6832,E,1,09,0.9,150.0,M,48.0,M,,*6F
$GPRMC,080821.00,A,5006.4493,N,00842.6832,E,9.1,273.7,010126,,,A*58
$GPGGA,080822.00,5006.4490,N,00842.6793,E,1,09,0.9,150.0,M,48.0,M,,*6B
$GPRMC,080822.00,A,5006.4490,N,00842.6793,E,9.1,256.9,010126,,,A*55
$GPGGA,080823.00,5006.4479,N,00842.6759,E,1,09,0.9,150.0,M,48.0,M,,*6B
$GPRMC,080823.00,A,5006.4479,N,00842.6759,E,9.1,220.5,010126,,,A*58
$GPGGA,080824.00,5006.4471,N,00842.6732,E,1,09,0.9,150.0,M,48.0,M,,*69
$GPRMC,080824.00,A,5006.4471,N,00842.6732,E,26.4,314.2,010126,,,A*63
$GPGGA,080825.00,5006.4524,N,00842.6654,E,1,09,0.9,150.0,M,48.0,M,,*68
$GPRMC,080825.00,A,5006.4524,N,00842.6654,E,26.4,318.5,010126,,,A*69
$GPGGA,080826.00,5006.4577,N,00842.6575,E,1,09,0.9,150.0,M,48.0,M,,*6D
$GPRMC,080826.00,A,5006.4577,N,00842.6575,E,26.4,316.2,010126,,,A*65
$GPGGA,080827.00,5006.4630,N,00842.6496,E,1,09,0.9,150.0,M,48.0,M,,*60
$GPRMC,080827.00,A,5006.4630,N,00842.6496,E,26.4,316.2,010126,,,A*68
$GPGGA,080828.00,5006.4683,N,00842.6417,E,1,09,0.9,150.0,M,48.0,M,,*6E
$GPRMC,080828.00,A,5006.4683,N,00842.6417,E,26.4,316.2,010126,,,A*66
$GPGGA,080829.00,5006.4736,N,00842.6338,E,1,09,0.9,150.0,M,48.0,M,,*6A
$GPRMC,080829.00,A,5006.4736,N,00842.6338,E,26.4,316.2,010126,,,A*62
$GPGGA,080830.00,5006.4789,N,00842.6259,E,1,09,0.9,150.0,M,48.0,M,,*60
$GPRMC,080830.00,A,5006.4789,N,00842.6259,E,26.4,316.2,010126,,,A*68
$GPGGA,080831.00,5006.4842,N,00842.6180,E,1,09,0.9,150.0,M,48.0,M,,*6E
$GPRMC,080831.00,A,5006.4842,N,00842.6180,E,26.4,316.2,010126,,,A*66
$GPGGA,080832.00,5006.4895,N,00842.6100,E,1,09,0.9,150.0,M,48.0,M,,*6F
$GPRMC,080832.00,A,5006.4895,N,00842.6100,E,26.4,316.2,010126,,,A*67
$GPGGA,080833.00,5006.4906,N,00842.6083,E,1,09,0.9,150.0,M,48.0,M,,*6F
$GPRMC,080833.00,A,5006.4906,N,00842.6083,E,0.0,,010126,,,A*7F
$GPGGA,080834.00,5006.4906,N,00842.6083,E,1,09,0.9,150.0,M,48.0,M,,*68
$GPRMC,080834.00,A,5006.4906,N,00842.6083,E,0.0,,010126,,,A*78
$GPGGA,080835.00,5006.4906,N,00842.6083,E,1,09,0.9,150.0,M,48.0,M,,*69
$GPRMC,080835.00,A,5006.4906,N,00842.6083,E,0.0,,010126,,,A*79
$GPGGA,080836.00,5006.4906,N,00842.6083,E,1,09,0.9,150.0,M,48.0,M,,*6A
$GPRMC,080836.00,A,5006.4906,N,00842.6083,E,0.0,,010126,,,A*7A
$GPGGA,080837.00,5006.4906,N,00842.6083,E,1,09,0.9,150.0,M,48.0,M,,*6B
$GPRMC,080837.00,A,5006.4906,N,00842.6083,E,0.0,,010126,,,A*7B
$GPGGA,080838.00,5006.4906,N,00842.6083,E,1,09,0.9,150.0,M,48.0,M,,*64
$GPRMC,080838.00,A,5006.4906,N,00842.6083,E,0.0,,010126,,,A*74
$GPGGA,080839.00,5006.4906,N,00842.6083,E,1,09,0.9,150.0,M,48.0,M,,*65
$GPRMC,080839.00,A,5006.4906,N,00842.6083,E,0.0,,010126,,,A*75
$GPGGA,080840.00,5006.4906,N,00842.6083,E,1,09,0.9,150.0,M,48.0,M,,*6B
$GPRMC,080840.00,A,5006.4906,N,00842.6083,E,0.0,,010126,,,A*7B
$GPGGA,080841.00,5006.4906,N,00842.6083,E,1,09,0.9,150.0,M,48.0,M,,*6A
$GPRMC,080841.00,A,5006.4906,N,00842.6083,E,0.0,,010126,,,A*7A
$GPGGA,080842.00,5006.4906,N,00842.6083,E,1,09,0.9,150.0,M,48.0,M,,*69
$GPRMC,080842.00,A,5006.4906,N,00842.6083,E,0.0,,010126,,,A*79
$GPGGA,080843.00,5006.4906,N,00842.6083,E,1,09,0.9,150.0,M,48.0,M,,*68
$GPRMC,080843.00,A,5006.4906,N,00842.6083,E,0.0,,010126,,,A*78
$GPGGA,080844.00,5006.4906,N,00842.6083,E,1,09,0.9,150.0,M,48.0,M,,*6F
$GPRMC,080844.00,A,5006.4906,N,00842.6083,E,0.0,,010126,,,A*7F
$GPGGA,080845.00,5006.4906,N,00842.6083,E,1,09,0.9,150.0,M,48.0,M,,*6E
$GPRMC,080845.00,A,5006.4906,N,00842.6083,E,0.0,,010126,,,A*7E
$GPGGA,080846.00,5006.4906,N,00842.6083,E,1,09,0.9,150.0,M,48.0,M,,*6D
$GPRMC,080846.00,A,5006.4906,N,00842.6083,E,0.0,,010126,,,A*7D
$GPGGA,080847.00,5006.4906,N,00842.6083,E,1,09,0.9,150.0,M,48.0,M,,*6C
$GPRMC,080847.00,A,5006.4906,N,00842.6083,E,0.0,,010126,,,A*7C
$GPGGA,080848.00,5006.4906,N,00842.6083,E,1,09,0.9,150.0,M,48.0,M,,*63
$GPRMC,080848.00,A,5006.4906,N,00842.6083,E,0.0,,010126,,,A*73
$GPGGA,080849.00,5006.4906,N,00842.6083,E,1,09,0.9,150.0,M,48.0,M,,*62
$GPRMC,080849.00,A,5006.4906,N,00842.6083,E,0.0,,010126,,,A*72
$GPGGA,080850.00,5006.4906,N,00842.6083,E,1,09,0.9,150.0,M,48.0,M,,*6A
$GPRMC,080850.00,A,5006.4906,N,00842.6083,E,0.0,,010126,,,A*7A
$GPGGA,080851.00,5006.4906,N,00842.6083,E,1,09,0.9,150.0,M,48.0,M,,*6B
$GPRMC,080851.00,A,5006.4906,N,00842.6083,E,0.0,,010126,,,A*7B
$GPGGA,080852.00,5006.4906,N,00842.6083,E,1,09,0.9,150.0,M,48.0,M,,*68
$GPRMC,080852.00,A,5006.4906,N,00842.6083,E,0.0,,010126,,,A*78
